{
  "type": "FeatureCollection",
  "generator": "overpass-ide",
  "copyright": "The data included in this document is from www.openstreetmap.org. The data is made available under ODbL.",
  "timestamp": "2023-05-11T13:04:37Z",
  "features": [
    {
      "type": "Feature",
      "properties": {
        "@id": "node/249278913",
        "car_service": "breakdown;inspection",
        "club": "automobile",
        "email": "neumarkt@oeamtc.at",
        "name": "ÖAMTC",
        "opening_hours": "Mo-Fr 08:00-12:00",
        "phone": "+43 3584 32 16 13",
        "shop": "car_repair",
        "website": "https://www.oeamtc.at/standorte/steiermark/neumarkt-16192447"
      },
      "geometry": {
        "type": "Point",
        "coordinates": [
          14.4251089,
          47.0766484
        ]
      },
      "id": "node/249278913"
    },
    {
      "type": "Feature",
      "properties": {
        "@id": "node/320397128",
        "car_service": "breakdown;inspection",
        "club": "automobile",
        "contact:phone": "+43 50 123 2314",
        "name": "ARBÖ Neunkirchen",
        "opening_hours": "Mo-Fr 08:00-12:00, 13:00-18:00; Sa 08:00-12:00",
        "operator": "ARBÖ",
        "phone": "050-123-2314",
        "shop": "car_repair",
        "source": "extrapolation",
        "website": "https://www.arboe.at/"
      },
      "geometry": {
        "type": "Point",
        "coordinates": [
          16.0692647,
          47.716425
        ]
      },
      "id": "node/320397128"
    },
    {
      "type": "Feature",
      "properties": {
        "@id": "node/325785637",
        "addr:housenumber": "18",
        "addr:postcode": "8850",
        "addr:street": "Märzenkeller",
        "brand": "ÖAMTC",
        "brand:wikidata": "Q306057",
        "brand:wikipedia": "de:Österreichischer Automobil-, Motorrad- und Touring Club",
        "car_service": "breakdown;inspection",
        "club": "automobile",
        "name": "ÖAMTC",
        "operator": "ÖAMTC",
        "shop": "car_repair",
        "wheelchair": "yes"
      },
      "geometry": {
        "type": "Point",
        "coordinates": [
          14.1614039,
          47.1135542
        ]
      },
      "id": "node/325785637"
    },
    {
      "type": "Feature",
      "properties": {
        "@id": "node/411067163",
        "addr:city": "Spielberg",
        "addr:country": "AT",
        "addr:housenumber": "18",
        "addr:postcode": "8724",
        "addr:street": "Poststraße",
        "email": "office@rimato.at",
        "name": "Rimato",
        "opening_hours": "Mo-Fr 08:00-12:30,14:00-18:00; Sa 09:00-12:00",
        "phone": "43(0)351272662",
        "repair": "yes",
        "shop": "motorcycle",
        "website": "https://www.rimato.at/de"
      },
      "geometry": {
        "type": "Point",
        "coordinates": [
          14.7961235,
          47.2139161
        ]
      },
      "id": "node/411067163"
    },
    {
      "type": "Feature",
      "properties": {
        "@id": "node/529010612",
        "description": "buses, trucks",
        "name": "Kappl",
        "shop": "car_repair"
      },
      "geometry": {
        "type": "Point",
        "coordinates": [
          16.2398629,
          47.3629875
        ]
      },
      "id": "node/529010612"
    },
    {
      "type": "Feature",
      "properties": {
        "@id": "node/529317331",
        "addr:city": "Windorf",
        "addr:housenumber": "1",
        "addr:postcode": "8054",
        "addr:street": "Gewerbering",
        "name": "KFZ - Wurm Anton GmbH",
        "shop": "car_repair"
      },
      "geometry": {
        "type": "Point",
        "coordinates": [
          15.4010094,
          46.9963663
        ]
      },
      "id": "node/529317331"
    },
    {
      "type": "Feature",
      "properties": {
        "@id": "node/529319683",
        "addr:city": "Windorf",
        "addr:housenumber": "11",
        "addr:postcode": "8054",
        "addr:street": "Gewerbering",
        "name": "Regnemer",
        "shop": "car_repair"
      },
      "geometry": {
        "type": "Point",
        "coordinates": [
          15.4010094,
          46.9973205
        ]
      },
      "id": "node/529319683"
    },
    {
      "type": "Feature",
      "properties": {
        "@id": "node/567972070",
        "name": "Auto Krainer",
        "shop": "car_repair"
      },
      "geometry": {
        "type": "Point",
        "coordinates": [
          14.3468972,
          46.6272961
        ]
      },
      "id": "node/567972070"
    },
    {
      "type": "Feature",
      "properties": {
        "@id": "node/669263473",
        "addr:city": "Weiz",
        "addr:country": "AT",
        "addr:housenumber": "2",
        "addr:postcode": "8160",
        "addr:street": "Bundesstraße",
        "brand": "ÖAMTC",
        "brand:wikidata": "Q306057",
        "brand:wikipedia": "de:Österreichischer Automobil-, Motorrad- und Touring Club",
        "car_service": "breakdown;inspection",
        "club": "automobile",
        "name": "ÖAMTC",
        "operator": "ÖAMTC",
        "shop": "car_repair"
      },
      "geometry": {
        "type": "Point",
        "coordinates": [
          15.6391806,
          47.2044843
        ]
      },
      "id": "node/669263473"
    },
    {
      "type": "Feature",
      "properties": {
        "@id": "node/679402830",
        "addr:city": "Eisenerz",
        "addr:housenumber": "12",
        "addr:postcode": "8790",
        "addr:street": "Vordernberger Straße",
        "car_service": "breakdown;inspection",
        "club": "automobile",
        "contact:email": "pz.eisenerz@arboe.at",
        "contact:phone": "+43 50 123-2603",
        "full_name": "ARBÖ Auto-, Motor- u Radfahrerbund Österreichs",
        "name": "ARBÖ Eisenerz",
        "operator": "ARBÖ",
        "phone": "050-123-2603",
        "shop": "car_repair",
        "website": "https://www.arboe.at/"
      },
      "geometry": {
        "type": "Point",
        "coordinates": [
          14.8929285,
          47.5417673
        ]
      },
      "id": "node/679402830"
    },
    {
      "type": "Feature",
      "properties": {
        "@id": "node/727684776",
        "addr:city": "Feistritz am Wechsel",
        "addr:country": "AT",
        "addr:housenumber": "364",
        "addr:place": "Feistritz am Wechsel",
        "addr:postcode": "2873",
        "at_bev:addr_date": "2020-10-01",
        "name": "Renault List",
        "operator": "Renault",
        "shop": "car_repair"
      },
      "geometry": {
        "type": "Point",
        "coordinates": [
          16.0580068,
          47.5997834
        ]
      },
      "id": "node/727684776"
    },
    {
      "type": "Feature",
      "properties": {
        "@id": "node/775725424",
        "car_service": "breakdown",
        "name": "Arbö Aspang",
        "operator": "ARBÖ",
        "phone": "050-123-2302",
        "shop": "car_repair"
      },
      "geometry": {
        "type": "Point",
        "coordinates": [
          16.0996135,
          47.5816706
        ]
      },
      "id": "node/775725424"
    },
    {
      "type": "Feature",
      "properties": {
        "@id": "node/794742049",
        "addr:city": "Heiligenkreuz im Lafnitztal",
        "addr:housenumber": "35",
        "addr:postcode": "7561",
        "addr:street": "Hauptstraße",
        "name": "Arbö Heiligenkreuz",
        "operator": "ARBÖ",
        "phone": "050-123-2102",
        "shop": "car_repair"
      },
      "geometry": {
        "type": "Point",
        "coordinates": [
          16.2209404,
          46.9981306
        ]
      },
      "id": "node/794742049"
    },
    {
      "type": "Feature",
      "properties": {
        "@id": "node/819181522",
        "name": "Autoreparatur und -Handel Hrvoje Rabuzin",
        "operator": "Hrvoje Rabuzin",
        "shop": "car_repair"
      },
      "geometry": {
        "type": "Point",
        "coordinates": [
          14.314801,
          47.0814747
        ]
      },
      "id": "node/819181522"
    },
    {
      "type": "Feature",
      "properties": {
        "@id": "node/831530245",
        "brand": "Toyota",
        "brand:wikidata": "Q53268",
        "brand:wikipedia": "en:Toyota",
        "name": "Toyota",
        "operator": "Scheikl",
        "shop": "car_repair"
      },
      "geometry": {
        "type": "Point",
        "coordinates": [
          15.2507125,
          47.4034087
        ]
      },
      "id": "node/831530245"
    },
    {
      "type": "Feature",
      "properties": {
        "@id": "node/847702371",
        "addr:city": "Graz",
        "addr:country": "AT",
        "addr:housenumber": "94",
        "addr:postcode": "8053",
        "addr:street": "Harter Straße",
        "brand": "Yamaha;Aprilia",
        "contact:email": "office@motorrad-klug.at",
        "contact:fax": "+43 316 278 558-18",
        "contact:phone": "+43 316 278 558",
        "motorcycle:parts": "yes",
        "motorcycle:repair": "yes",
        "motorcycle:sales": "yes",
        "motorcycle:tyres": "yes",
        "name": "Motorrad Klug",
        "opening_hours": "Mo-Fr 08:00-18:00; Sa 08:00-12:00",
        "operator": "Franz Klug",
        "service": "dealer;tyres;repair;parts;electrical",
        "shop": "motorcycle",
        "website": "http://klug.at"
      },
      "geometry": {
        "type": "Point",
        "coordinates": [
          15.408547,
          47.0474734
        ]
      },
      "id": "node/847702371"
    },
    {
      "type": "Feature",
      "properties": {
        "@id": "node/947409724",
        "addr:housenumber": "3",
        "addr:postcode": "7551",
        "addr:street": "Wiener Straße",
        "brand": "Fiat",
        "name": "Mandler",
        "phone": "+43 3326 52372-0",
        "shop": "car_repair"
      },
      "geometry": {
        "type": "Point",
        "coordinates": [
          16.1648841,
          47.1611564
        ]
      },
      "id": "node/947409724"
    },
    {
      "type": "Feature",
      "properties": {
        "@id": "node/1022388138",
        "addr:city": "Gralla",
        "addr:country": "AT",
        "addr:housenumber": "1",
        "addr:postcode": "8431",
        "addr:street": "Gewerbepark Nord",
        "brand": "Fiat;Lancia;Hyundai;Suzuki;Fiat Professional;Iveco;MAN;Chrysler,Dodge",
        "email": "office@hirschmugl.eu",
        "fax": "+43 3452 84438 18",
        "name": "Hirschmugl GmbH & Co KG",
        "opening_hours": "Mo-Fr 08:00-12:00,13:00-17:00; PH off",
        "operator": "Hirschmugl GmbH & Co KG",
        "phone": "+43 3452 84438",
        "shop": "car_repair",
        "website": "http://www.hirschmugl.eu"
      },
      "geometry": {
        "type": "Point",
        "coordinates": [
          15.556303,
          46.8043214
        ]
      },
      "id": "node/1022388138"
    },
    {
      "type": "Feature",
      "properties": {
        "@id": "node/1022401618",
        "addr:city": "Leibnitz",
        "addr:country": "AT",
        "addr:housenumber": "9",
        "addr:postcode": "8430",
        "addr:street": "Industriestraße",
        "brand": "Suzuki;Opel",
        "name": "Gady",
        "opening_hours": "Mo-Th 07:30-12:00,13:00-16:45; Fr 07:30-12:00,13:00-16:30; Sa,Su,PH off",
        "operator": "Gady GmbH",
        "service": "dealer",
        "shop": "car_repair"
      },
      "geometry": {
        "type": "Point",
        "coordinates": [
          15.5650901,
          46.8015282
        ]
      },
      "id": "node/1022401618"
    },
    {
      "type": "Feature",
      "properties": {
        "@id": "node/1080432895",
        "name": "Grill",
        "shop": "car_repair",
        "wheelchair": "yes"
      },
      "geometry": {
        "type": "Point",
        "coordinates": [
          15.2777124,
          47.4366604
        ]
      },
      "id": "node/1080432895"
    },
    {
      "type": "Feature",
      "properties": {
        "@id": "node/1090689453",
        "brand": "ÖAMTC",
        "brand:wikidata": "Q306057",
        "brand:wikipedia": "de:Österreichischer Automobil-, Motorrad- und Touring Club",
        "car_service": "breakdown;inspection",
        "club": "automobile",
        "name": "ÖAMTC",
        "shop": "car_repair",
        "wheelchair": "limited",
        "wheelchair:description": "Eingangsbereich und Informationstheke Barrierefrei erreichbar! Nur das WC ist für Rollis zu klein!"
      },
      "geometry": {
        "type": "Point",
        "coordinates": [
          15.2697136,
          47.4261932
        ]
      },
      "id": "node/1090689453"
    },
    {
      "type": "Feature",
      "properties": {
        "@id": "node/1090689483",
        "car_service": "breakdown;inspection",
        "club": "automobile",
        "name": "ARBÖ",
        "operator": "ARBÖ",
        "shop": "car_repair"
      },
      "geometry": {
        "type": "Point",
        "coordinates": [
          15.2715324,
          47.4335524
        ]
      },
      "id": "node/1090689483"
    },
    {
      "type": "Feature",
      "properties": {
        "@id": "node/1101682560",
        "name": "Eggenberger Schuh- und Schlüsseldienst",
        "opening_hours": "Mo-Fr 08:30-12:30,15:00-17:30; Th 08:30-12:30",
        "shop": "shoe_repair",
        "wheelchair": "no"
      },
      "geometry": {
        "type": "Point",
        "coordinates": [
          15.404523,
          47.0730667
        ]
      },
      "id": "node/1101682560"
    },
    {
      "type": "Feature",
      "properties": {
        "@id": "node/1184345862",
        "addr:city": "Leoben",
        "addr:country": "AT",
        "addr:housenumber": "13",
        "addr:postcode": "8700",
        "addr:street": "Donawitzer Straße",
        "at_bev:addr_date": "2016-10-02",
        "name": "Otto",
        "opening_hours": "Mo, Th 9:00-12:00, 14:30-18:00",
        "repair": "yes",
        "shop": "bicycle",
        "source": "survey"
      },
      "geometry": {
        "type": "Point",
        "coordinates": [
          15.0900444,
          47.3759384
        ]
      },
      "id": "node/1184345862"
    },
    {
      "type": "Feature",
      "properties": {
        "@id": "node/1234615259",
        "brand": "Peugeot",
        "brand:wikidata": "Q6742",
        "name": "Peugeot Diener",
        "shop": "car_repair"
      },
      "geometry": {
        "type": "Point",
        "coordinates": [
          15.8578995,
          47.6926006
        ]
      },
      "id": "node/1234615259"
    },
    {
      "type": "Feature",
      "properties": {
        "@id": "node/1259882614",
        "addr:city": "Kirchbach in der Steiermark",
        "addr:country": "AT",
        "addr:housenumber": "100",
        "addr:place": "Kirchbach in Steiermark",
        "addr:postcode": "8082",
        "name": "Autohaus Fröhlich",
        "opening_hours": "Mo-Fr 07:30-12:00, 13:00-17:00",
        "operator": "Inh. Johann Stelzl",
        "phone": "+43 3116 2431",
        "service:vehicle:car_repair": "yes",
        "service:vehicle:car_sales": "yes",
        "service:vehicle:car_service": "yes",
        "shop": "car_repair",
        "website": "https://www.autohaus-froehlich.at/"
      },
      "geometry": {
        "type": "Point",
        "coordinates": [
          15.6628335,
          46.9335126
        ]
      },
      "id": "node/1259882614"
    },
    {
      "type": "Feature",
      "properties": {
        "@id": "node/1259882625",
        "addr:country": "AT",
        "addr:housenumber": "22",
        "addr:place": "Kirchbach in Steiermark",
        "addr:postcode": "8082",
        "name": "Auto Fruhmann",
        "phone": "+43664 2525237",
        "shop": "car_repair"
      },
      "geometry": {
        "type": "Point",
        "coordinates": [
          15.6638783,
          46.9333885
        ]
      },
      "id": "node/1259882625"
    },
    {
      "type": "Feature",
      "properties": {
        "@id": "node/1322910611",
        "addr:city": "Köflach",
        "addr:country": "AT",
        "addr:housenumber": "33",
        "addr:postcode": "8580",
        "addr:street": "Grazerstraße",
        "car_service": "breakdown;inspection",
        "club": "automobile",
        "contact:email": "pz.koeflach@arboe.at",
        "contact:phone": "+43 50 123-2611",
        "name": "ARBÖ Prüfzentrum Köflach",
        "operator": "ARBÖ",
        "shop": "car_repair",
        "website": "https://www.arboe.at/steiermark/"
      },
      "geometry": {
        "type": "Point",
        "coordinates": [
          15.0910438,
          47.0621834
        ]
      },
      "id": "node/1322910611"
    },
    {
      "type": "Feature",
      "properties": {
        "@id": "node/1327328216",
        "addr:country": "AT",
        "addr:housenumber": "7",
        "addr:postcode": "8111",
        "addr:street": "Gewerbepark",
        "name": "KFZ Jürgen Heil",
        "phone": "+433124 51616",
        "shop": "car_repair",
        "website": "http://www.kfz-heil.at"
      },
      "geometry": {
        "type": "Point",
        "coordinates": [
          15.3394988,
          47.1190209
        ]
      },
      "id": "node/1327328216"
    },
    {
      "type": "Feature",
      "properties": {
        "@id": "node/1334024527",
        "name": "KFZ Werkstätte Vogl",
        "shop": "car_repair"
      },
      "geometry": {
        "type": "Point",
        "coordinates": [
          15.6927221,
          47.2737843
        ]
      },
      "id": "node/1334024527"
    },
    {
      "type": "Feature",
      "properties": {
        "@id": "node/1344333031",
        "addr:city": "Eisenerz",
        "addr:country": "AT",
        "addr:housenumber": "74",
        "addr:postcode": "8790",
        "addr:street": "Vordernberger Straße",
        "at_bev:addr_date": "2018-10-01",
        "contact:phone": "+43 3848 600 02",
        "name": "Ritzinger",
        "opening_hours": "Mo-Th 08:00-12:00, 13:00-17:00; Fr 08:00-12:00, 13:00-15:30",
        "shop": "car_repair",
        "website": "https://www.auto-ritzinger.at/"
      },
      "geometry": {
        "type": "Point",
        "coordinates": [
          14.9076495,
          47.541507
        ]
      },
      "id": "node/1344333031"
    },
    {
      "type": "Feature",
      "properties": {
        "@id": "node/1361201107",
        "addr:city": "Rohr im Burgenland",
        "addr:country": "AT",
        "addr:housenumber": "33",
        "addr:postcode": "7554",
        "addr:street": "Moorstraße",
        "name": "Hirschbeck Reifencenter",
        "shop": "car_repair"
      },
      "geometry": {
        "type": "Point",
        "coordinates": [
          16.1649009,
          47.1180433
        ]
      },
      "id": "node/1361201107"
    },
    {
      "type": "Feature",
      "properties": {
        "@id": "node/1363874498",
        "addr:city": "Knittelfeld",
        "addr:country": "AT",
        "addr:housenumber": "24",
        "addr:postcode": "8720",
        "addr:street": "Wiener Straße",
        "brand": "Volkswagen",
        "brand:wikidata": "Q246",
        "brand:wikipedia": "en:Volkswagen",
        "name": "Autohaus Neubauer GesmbH",
        "shop": "car_repair;car"
      },
      "geometry": {
        "type": "Point",
        "coordinates": [
          14.8279737,
          47.2176217
        ]
      },
      "id": "node/1363874498"
    },
    {
      "type": "Feature",
      "properties": {
        "@id": "node/1367620561",
        "shop": "car_repair"
      },
      "geometry": {
        "type": "Point",
        "coordinates": [
          15.707258,
          46.7532284
        ]
      },
      "id": "node/1367620561"
    },
    {
      "type": "Feature",
      "properties": {
        "@id": "node/1388348480",
        "brand": "Renault",
        "name": "Vogl",
        "shop": "car_repair"
      },
      "geometry": {
        "type": "Point",
        "coordinates": [
          15.4010664,
          47.0308688
        ]
      },
      "id": "node/1388348480"
    },
    {
      "type": "Feature",
      "properties": {
        "@id": "node/1432150981",
        "addr:city": "Krieglach",
        "addr:country": "AT",
        "addr:housenumber": "13",
        "addr:postcode": "8670",
        "addr:street": "Grazer Straße",
        "at_bev:addr_date": "2017-04-07",
        "name": "Citroen",
        "shop": "car_repair"
      },
      "geometry": {
        "type": "Point",
        "coordinates": [
          15.5603335,
          47.544104
        ]
      },
      "id": "node/1432150981"
    },
    {
      "type": "Feature",
      "properties": {
        "@id": "node/1445157491",
        "shop": "car_repair"
      },
      "geometry": {
        "type": "Point",
        "coordinates": [
          16.1873533,
          47.5267265
        ]
      },
      "id": "node/1445157491"
    },
    {
      "type": "Feature",
      "properties": {
        "@id": "node/1446388126",
        "addr:city": "Klagenfurt am Wörthersee",
        "addr:country": "AT",
        "addr:housenumber": "4",
        "addr:postcode": "9020",
        "addr:street": "Theatergasse",
        "check_date": "2023-01-05",
        "level": "0",
        "name": "Repair Copy",
        "opening_hours": "Mo-Fr 08:30-17:00",
        "shop": "copyshop",
        "wheelchair": "no"
      },
      "geometry": {
        "type": "Point",
        "coordinates": [
          14.3072928,
          46.6266114
        ]
      },
      "id": "node/1446388126"
    },
    {
      "type": "Feature",
      "properties": {
        "@id": "node/1475953266",
        "entrance": "yes",
        "shop": "car_repair"
      },
      "geometry": {
        "type": "Point",
        "coordinates": [
          15.2740345,
          47.4180907
        ]
      },
      "id": "node/1475953266"
    },
    {
      "type": "Feature",
      "properties": {
        "@id": "node/1490583728",
        "shop": "car_repair"
      },
      "geometry": {
        "type": "Point",
        "coordinates": [
          16.0688345,
          47.7228132
        ]
      },
      "id": "node/1490583728"
    },
    {
      "type": "Feature",
      "properties": {
        "@id": "node/1490583730",
        "addr:city": "Neunkirchen",
        "addr:country": "AT",
        "addr:postcode": "2620",
        "contact:phone": "+43 2635 672 97",
        "name": "Autohaus Partsch",
        "opening_hours": "Mo-Fr 07:00-17:00; Sa 09:00-12:00",
        "shop": "car_repair",
        "website": "http://partsch.at/"
      },
      "geometry": {
        "type": "Point",
        "coordinates": [
          16.0673271,
          47.7183923
        ]
      },
      "id": "node/1490583730"
    },
    {
      "type": "Feature",
      "properties": {
        "@id": "node/1544050702",
        "addr:city": "Weißkirchen in Steiermark",
        "addr:country": "AT",
        "addr:district": "Murtal",
        "addr:housenumber": "19",
        "addr:postcode": "8741",
        "addr:street": "Judenburgerstraße",
        "name": "Autohaus Kaltenegger und Konrad",
        "shop": "car_repair",
        "website": "https://kal-kon.at/"
      },
      "geometry": {
        "type": "Point",
        "coordinates": [
          14.7361548,
          47.1541279
        ]
      },
      "id": "node/1544050702"
    },
    {
      "type": "Feature",
      "properties": {
        "@id": "node/1544247748",
        "brand": "Alfa Romeo;Renault;Dacia",
        "contact:phone": "+43 3332 639 63",
        "name": "Peindl",
        "opening_hours": "Mo-Fr 07:30-12:00,13:00-17:00; Sa 07:30-12:00",
        "service": "dealer;repair;tyres;parts",
        "shop": "car",
        "website": "https://www.peindl.at/"
      },
      "geometry": {
        "type": "Point",
        "coordinates": [
          15.9895219,
          47.2839128
        ]
      },
      "id": "node/1544247748"
    },
    {
      "type": "Feature",
      "properties": {
        "@id": "node/1547200427",
        "name": "Dieselfink",
        "opening_hours": "Mo-Fr 07:45-12:00,13:00-16:30",
        "operator": "Peindl Franz",
        "shop": "car_repair"
      },
      "geometry": {
        "type": "Point",
        "coordinates": [
          15.9835964,
          47.2831825
        ]
      },
      "id": "node/1547200427"
    },
    {
      "type": "Feature",
      "properties": {
        "@id": "node/1548575641",
        "brand": "VW;Audi;Skoda",
        "name": "Ebner",
        "opening_hours": "Mo-Fr 08:00-12:00,13:00-17:00;Sa 09:00-12:00",
        "service": "dealer;repair;tyres;parts",
        "shop": "car",
        "website": "http://www.auto-ebner.at/"
      },
      "geometry": {
        "type": "Point",
        "coordinates": [
          15.9797532,
          47.2905141
        ]
      },
      "id": "node/1548575641"
    },
    {
      "type": "Feature",
      "properties": {
        "@id": "node/1548575648",
        "addr:city": "Hartberg",
        "addr:country": "AT",
        "addr:housenumber": "18",
        "addr:postcode": "8230",
        "addr:street": "Raimund Obendrauf-Straße",
        "brand": "Mercedes-Benz;smart;Chrysler;Jeep;Dodge",
        "contact:phone": "+43 3332 635 00",
        "name": "Mercedes-Benz Kröpfl",
        "opening_hours": "Mo-Fr 08:00-18:00, Sa 09:00-12:00",
        "phone": "+43 3332 63500",
        "service": "dealer;repair;tyres;parts",
        "service:vehicle:car_repair": "yes",
        "service:vehicle:diagnostics": "yes",
        "service:vehicle:inspection": "yes",
        "service:vehicle:new_car": "yes",
        "service:vehicle:new_car_sales": "yes",
        "service:vehicle:oil_change": "yes",
        "service:vehicle:used_car_sales": "yes",
        "service:vehicle:wheels": "yes",
        "shop": "car",
        "website": "https://www.kroepfl.at/"
      },
      "geometry": {
        "type": "Point",
        "coordinates": [
          15.9777779,
          47.2858984
        ]
      },
      "id": "node/1548575648"
    },
    {
      "type": "Feature",
      "properties": {
        "@id": "node/1548869197",
        "addr:city": "Hartberg",
        "addr:country": "AT",
        "addr:housenumber": "13",
        "addr:postcode": "8230",
        "addr:street": "Flurgasse",
        "at_bev:addr_date": "2019-10-01",
        "name": "Kauer",
        "opening_hours": "Mo-Th 07:00-12:00,13:00-17:00; Fr 07:00-12:00",
        "shop": "car_repair",
        "website": "http://www.kfz-kauer.at/"
      },
      "geometry": {
        "type": "Point",
        "coordinates": [
          15.9669935,
          47.2754861
        ]
      },
      "id": "node/1548869197"
    },
    {
      "type": "Feature",
      "properties": {
        "@id": "node/1555869777",
        "car_service": "breakdown;inspection",
        "club": "automobile",
        "name": "ARBÖ",
        "opening_hours": "Mo-Fr 08:00-12:00,13:00-17:00",
        "shop": "car_repair"
      },
      "geometry": {
        "type": "Point",
        "coordinates": [
          15.9854665,
          47.2836304
        ]
      },
      "id": "node/1555869777"
    },
    {
      "type": "Feature",
      "properties": {
        "@id": "node/1649220264",
        "name": "KFZ Doc",
        "shop": "car_repair"
      },
      "geometry": {
        "type": "Point",
        "coordinates": [
          13.8737897,
          46.6206344
        ]
      },
      "id": "node/1649220264"
    },
    {
      "type": "Feature",
      "properties": {
        "@id": "node/1658843448",
        "shop": "car_repair"
      },
      "geometry": {
        "type": "Point",
        "coordinates": [
          14.7652392,
          47.1974921
        ]
      },
      "id": "node/1658843448"
    },
    {
      "type": "Feature",
      "properties": {
        "@id": "node/1684701293",
        "addr:city": "Graz",
        "addr:country": "AT",
        "addr:housenumber": "23",
        "addr:postcode": "8010",
        "addr:street": "Münzgrabenstraße",
        "contact:phone": "+43 650 3925929",
        "name": "Haazen Baerts",
        "old_name": "Leopold Pilich",
        "opening_hours": "off",
        "shop": "bag",
        "shop:old": "shoe_repair",
        "source": "survey",
        "website": "www.haazenbaerts.com",
        "wheelchair": "no"
      },
      "geometry": {
        "type": "Point",
        "coordinates": [
          15.4487277,
          47.0645534
        ]
      },
      "id": "node/1684701293"
    },
    {
      "type": "Feature",
      "properties": {
        "@id": "node/1702771210",
        "addr:city": "Bärnbach",
        "addr:country": "AT",
        "addr:housenumber": "20",
        "addr:postcode": "8572",
        "addr:street": "Dr. Niederdorfer Straße",
        "name": "Auto Jumper",
        "shop": "car_repair"
      },
      "geometry": {
        "type": "Point",
        "coordinates": [
          15.1271486,
          47.0630318
        ]
      },
      "id": "node/1702771210"
    },
    {
      "type": "Feature",
      "properties": {
        "@id": "node/1702771324",
        "addr:country": "AT",
        "addr:housenumber": "5",
        "addr:postcode": "8572",
        "addr:street": "Hauptstraße",
        "contact:phone": "+43 3142 62549",
        "designation": "VW Verkauf & Service, Audi Service",
        "name": "Autohaus Mürzl",
        "opening_hours": "Mo-Fr 07:30-12:00, 12:30-16:30",
        "shop": "car_repair",
        "website": "https://www.muerzl.at/kontakt"
      },
      "geometry": {
        "type": "Point",
        "coordinates": [
          15.1275995,
          47.0719987
        ]
      },
      "id": "node/1702771324"
    },
    {
      "type": "Feature",
      "properties": {
        "@id": "node/1704221003",
        "name": "BMW-Huber",
        "shop": "car_repair",
        "wheelchair": "yes"
      },
      "geometry": {
        "type": "Point",
        "coordinates": [
          15.2388417,
          47.4005132
        ]
      },
      "id": "node/1704221003"
    },
    {
      "type": "Feature",
      "properties": {
        "@id": "node/1715128118",
        "addr:housename": "KFZ Flucher",
        "addr:housenumber": "13",
        "addr:place": "Narrath",
        "addr:postcode": "8452",
        "designation": "de: Kleinbus- u. PKW-Vermietung, Kraftfahrzeugtechnik",
        "name": "KFZ Flucher",
        "opening_hours": "Mo-Fr 08:00-17:00",
        "shop": "car_repair",
        "source": "survey",
        "website": "http://www.kfz-flucher.at/"
      },
      "geometry": {
        "type": "Point",
        "coordinates": [
          15.4185493,
          46.7233071
        ]
      },
      "id": "node/1715128118"
    },
    {
      "type": "Feature",
      "properties": {
        "@id": "node/1723066527",
        "addr:city": "Bärnbach",
        "addr:country": "AT",
        "addr:housenumber": "22",
        "addr:postcode": "8572",
        "addr:street": "Dr. Niederdorfer Straße",
        "brand": "ÖAMTC",
        "brand:wikidata": "Q306057",
        "brand:wikipedia": "de:Österreichischer Automobil-, Motorrad- und Touring Club",
        "name": "ÖAMTC",
        "shop": "car_repair"
      },
      "geometry": {
        "type": "Point",
        "coordinates": [
          15.1271259,
          47.062638
        ]
      },
      "id": "node/1723066527"
    },
    {
      "type": "Feature",
      "properties": {
        "@id": "node/1747022603",
        "name": "Reifenprofi",
        "shop": "car_repair",
        "wheelchair": "no"
      },
      "geometry": {
        "type": "Point",
        "coordinates": [
          15.2532098,
          47.4044526
        ]
      },
      "id": "node/1747022603"
    },
    {
      "type": "Feature",
      "properties": {
        "@id": "node/1750758433",
        "name": "Brenning",
        "shop": "car_repair"
      },
      "geometry": {
        "type": "Point",
        "coordinates": [
          16.2168341,
          47.730769
        ]
      },
      "id": "node/1750758433"
    },
    {
      "type": "Feature",
      "properties": {
        "@id": "node/1757344942",
        "addr:city": "Köflach",
        "addr:country": "AT",
        "addr:housename": "Autospengler u Lackierer Edler Franz",
        "addr:housenumber": "40",
        "addr:postcode": "8580",
        "addr:street": "Packer Straße",
        "contact:phone": "+43 3144 3170",
        "name": "Autospengler u Lackierer Edler Franz",
        "shop": "car_repair"
      },
      "geometry": {
        "type": "Point",
        "coordinates": [
          15.0740659,
          47.0526927
        ]
      },
      "id": "node/1757344942"
    },
    {
      "type": "Feature",
      "properties": {
        "@id": "node/1765743310",
        "addr:city": "Seiersberg-Pirka",
        "addr:country": "AT",
        "addr:housename": "Forstinger",
        "addr:housenumber": "6",
        "addr:postcode": "8054",
        "addr:street": "Werschweg",
        "contact:phone": "+43 59 101 9823",
        "designation": "auto demand, workshop, Bikershop",
        "name": "Forstinger",
        "opening_hours": "Mo-Fr 08:30-18:00; Sa 08:30-13:00",
        "shop": "car_repair",
        "website": "https://www.forstinger.com/"
      },
      "geometry": {
        "type": "Point",
        "coordinates": [
          15.4108418,
          47.0077719
        ]
      },
      "id": "node/1765743310"
    },
    {
      "type": "Feature",
      "properties": {
        "@id": "node/1769749425",
        "addr:housename": "Fahrradklinik - Walter Hubmann",
        "addr:housenumber": "5",
        "addr:postcode": "8430",
        "addr:street": "Quergasse",
        "designation": "bicycle repair",
        "name": "Fahrradklinik",
        "operator": "Walter Hubmann",
        "shop": "bicycle_repair",
        "website": "www.fahrradklinik.at.tf"
      },
      "geometry": {
        "type": "Point",
        "coordinates": [
          15.5394486,
          46.7836441
        ]
      },
      "id": "node/1769749425"
    },
    {
      "type": "Feature",
      "properties": {
        "@id": "node/1771257208",
        "addr:city": "Voitsberg",
        "addr:country": "AT",
        "addr:housenumber": "128",
        "addr:postcode": "8572",
        "addr:street": "Grazer Vorstadt",
        "brand": "Mercedes-Benz;KIA",
        "contact:phone": "+43 3142 23 923-0",
        "email": "office@autohaus-harb.at",
        "name": "Autohaus Harb GmbH",
        "old_name": "Nadegger GesmbH",
        "opening_hours": "Mo-Fr 07:30-17:30; Sa 09:00-12:00",
        "shop": "car_repair",
        "website": "http://autozentrum-harb.com/"
      },
      "geometry": {
        "type": "Point",
        "coordinates": [
          15.1675854,
          47.0377784
        ]
      },
      "id": "node/1771257208"
    },
    {
      "type": "Feature",
      "properties": {
        "@id": "node/1773692403",
        "addr:housenumber": "97",
        "addr:postcode": "8452",
        "addr:street": "Grossklein",
        "name": "KFZ Mack",
        "operator": "Klemens Mack",
        "shop": "car_repair",
        "website": "http://www.kfz-mack.at"
      },
      "geometry": {
        "type": "Point",
        "coordinates": [
          15.4296308,
          46.7293388
        ]
      },
      "id": "node/1773692403"
    },
    {
      "type": "Feature",
      "properties": {
        "@id": "node/1779134651",
        "name": "Kfz Hausleitner",
        "shop": "car_repair"
      },
      "geometry": {
        "type": "Point",
        "coordinates": [
          15.6928503,
          47.279272
        ]
      },
      "id": "node/1779134651"
    },
    {
      "type": "Feature",
      "properties": {
        "@id": "node/1782609960",
        "addr:housenumber": "1",
        "addr:postcode": "8564",
        "addr:street": "Industriepark Steinwand",
        "operator": "Gressenberger & Schweighart GmbH",
        "shop": "car_repair"
      },
      "geometry": {
        "type": "Point",
        "coordinates": [
          15.2214894,
          47.0073165
        ]
      },
      "id": "node/1782609960"
    },
    {
      "type": "Feature",
      "properties": {
        "@id": "node/1783530179",
        "shop": "car_repair"
      },
      "geometry": {
        "type": "Point",
        "coordinates": [
          16.0159066,
          47.3694045
        ]
      },
      "id": "node/1783530179"
    },
    {
      "type": "Feature",
      "properties": {
        "@id": "node/1785292472",
        "shop": "car_repair"
      },
      "geometry": {
        "type": "Point",
        "coordinates": [
          15.9596494,
          47.4141345
        ]
      },
      "id": "node/1785292472"
    },
    {
      "type": "Feature",
      "properties": {
        "@id": "node/1832318338",
        "addr:city": "Spital am Pyhrn",
        "addr:country": "AT",
        "addr:housenumber": "18",
        "addr:postcode": "4582",
        "addr:street": "Pyhrnstraße",
        "brand": "Hyundai",
        "contact:phone": "+43 7563 703 80",
        "name": "KFZ-Meisterbetrieb WEISZ",
        "opening_hours": "Mo-Th 07:30-12:00, 13:00-17:00; Fr 07:30-12:00",
        "shop": "car_repair",
        "website": "http://www.bernhardweisz.at/kontakt/"
      },
      "geometry": {
        "type": "Point",
        "coordinates": [
          14.3393286,
          47.6607003
        ]
      },
      "id": "node/1832318338"
    },
    {
      "type": "Feature",
      "properties": {
        "@id": "node/1888734683",
        "addr:city": "Graz",
        "addr:country": "AT",
        "addr:housenumber": "68a",
        "addr:postcode": "8041",
        "addr:street": "Ziehrerstraße",
        "contact:email": "info@ctc-graz.at",
        "contact:fax": "+43 316 42 99 44 - 44",
        "contact:phone": "+43 316 42 99 44",
        "full_name": "Car Technology Center",
        "name": "ctc",
        "shop": "car_repair",
        "source": "survey;Stadt Graz - data.graz.gv.at",
        "website": "http://ctc-graz.at/",
        "wheelchair": "yes"
      },
      "geometry": {
        "type": "Point",
        "coordinates": [
          15.4521253,
          47.0388846
        ]
      },
      "id": "node/1888734683"
    },
    {
      "type": "Feature",
      "properties": {
        "@id": "node/1891105564",
        "name": "Essenko",
        "shop": "car_repair"
      },
      "geometry": {
        "type": "Point",
        "coordinates": [
          15.3199231,
          47.4567922
        ]
      },
      "id": "node/1891105564"
    },
    {
      "type": "Feature",
      "properties": {
        "@id": "node/1891110681",
        "brand": "Volkswagen",
        "brand:wikidata": "Q246",
        "name": "VW Porsche Kapfenberg",
        "shop": "car_repair"
      },
      "geometry": {
        "type": "Point",
        "coordinates": [
          15.3005733,
          47.4468564
        ]
      },
      "id": "node/1891110681"
    },
    {
      "type": "Feature",
      "properties": {
        "@id": "node/1891136002",
        "shop": "car_repair"
      },
      "geometry": {
        "type": "Point",
        "coordinates": [
          15.3471207,
          47.4695473
        ]
      },
      "id": "node/1891136002"
    },
    {
      "type": "Feature",
      "properties": {
        "@id": "node/1891136684",
        "name": "LKW Huber",
        "shop": "car_repair"
      },
      "geometry": {
        "type": "Point",
        "coordinates": [
          15.3588687,
          47.4712262
        ]
      },
      "id": "node/1891136684"
    },
    {
      "type": "Feature",
      "properties": {
        "@id": "node/1891142952",
        "addr:city": "Kindberg",
        "addr:housenumber": "18",
        "addr:postcode": "8650",
        "addr:street": "Hauptstraße",
        "name": "Autohaus Windbacher",
        "phone": "+43 3865 2101-0",
        "shop": "car_repair",
        "website": "www.windbacher.co.at"
      },
      "geometry": {
        "type": "Point",
        "coordinates": [
          15.4489105,
          47.5067032
        ]
      },
      "id": "node/1891142952"
    },
    {
      "type": "Feature",
      "properties": {
        "@id": "node/1917030396",
        "addr:city": "Deutsch Goritz",
        "addr:housenumber": "78",
        "addr:place": "Deutsch Goritz",
        "addr:postcode": "8483",
        "name": "Hirschmugl GmbH & Co KG",
        "shop": "car_repair",
        "website": "http://www.Hirschmugl.eu"
      },
      "geometry": {
        "type": "Point",
        "coordinates": [
          15.8322763,
          46.749137
        ]
      },
      "id": "node/1917030396"
    },
    {
      "type": "Feature",
      "properties": {
        "@id": "node/1917037469",
        "addr:city": "Deutsch Goritz",
        "addr:housenumber": "26",
        "addr:place": "Deutsch Goritz",
        "addr:postcode": "8483",
        "name": "Autohaus Gady",
        "shop": "car_repair",
        "website": "https://www.gady.at/"
      },
      "geometry": {
        "type": "Point",
        "coordinates": [
          15.8284714,
          46.7515647
        ]
      },
      "id": "node/1917037469"
    },
    {
      "type": "Feature",
      "properties": {
        "@id": "node/1917323784",
        "addr:city": "Bärnbach",
        "addr:country": "AT",
        "addr:housenumber": "4",
        "addr:postcode": "8570",
        "addr:street": "Packer Straße",
        "contact:phone": "+43 3142 237 000",
        "name": "Fripertinger GesmbH",
        "shop": "car_repair",
        "website": "https://www.fripertinger.at/"
      },
      "geometry": {
        "type": "Point",
        "coordinates": [
          15.1365135,
          47.0549576
        ]
      },
      "id": "node/1917323784"
    },
    {
      "type": "Feature",
      "properties": {
        "@id": "node/1919734609",
        "addr:city": "Köflach",
        "addr:country": "AT",
        "addr:housenumber": "4",
        "addr:postcode": "8580",
        "addr:street": "Dillacherstraße",
        "contact:phone": "+43 3144 2293",
        "name": "Rossegger & Baumann",
        "opening_hours": "Mo-Th 08:00-17:00; Fr 8:00-16:30; Sa 09:00-12:00",
        "shop": "car_repair",
        "website": "https://www.rosseggerbaumann.at/"
      },
      "geometry": {
        "type": "Point",
        "coordinates": [
          15.0811686,
          47.0590227
        ]
      },
      "id": "node/1919734609"
    },
    {
      "type": "Feature",
      "properties": {
        "@id": "node/1923787448",
        "shop": "car_repair"
      },
      "geometry": {
        "type": "Point",
        "coordinates": [
          14.7843557,
          46.9705108
        ]
      },
      "id": "node/1923787448"
    },
    {
      "type": "Feature",
      "properties": {
        "@id": "node/1930985770",
        "name": "Korbel CarTuning",
        "shop": "car_repair"
      },
      "geometry": {
        "type": "Point",
        "coordinates": [
          15.9897636,
          47.2833682
        ]
      },
      "id": "node/1930985770"
    },
    {
      "type": "Feature",
      "properties": {
        "@id": "node/1933992548",
        "addr:city": "Hartberg",
        "addr:country": "AT",
        "addr:housenumber": "15-17",
        "addr:postcode": "8230",
        "addr:street": "Flurgasse",
        "at_bev:addr_date": "2019-10-01",
        "name": "Lind Karosserie, Lack & Glas",
        "opening_hours": "Mo-Th 07:15-12:00,13:00-16:30; Fr 07:15-12:00,12:30-16:00",
        "operator": "TL Automobile Vertriebs GmbH & Co KG",
        "phone": "+43 3332 62496",
        "shop": "car_repair",
        "website": "https://www.auto-lind.at"
      },
      "geometry": {
        "type": "Point",
        "coordinates": [
          15.9672384,
          47.2756573
        ]
      },
      "id": "node/1933992548"
    },
    {
      "type": "Feature",
      "properties": {
        "@id": "node/1937879029",
        "name": "Abschleppdienst Steinkellner",
        "shop": "car_repair"
      },
      "geometry": {
        "type": "Point",
        "coordinates": [
          14.7875369,
          46.966803
        ]
      },
      "id": "node/1937879029"
    },
    {
      "type": "Feature",
      "properties": {
        "@id": "node/1943451797",
        "addr:housenumber": "3",
        "addr:postcode": "8141",
        "addr:street": "Rudolf-Diesel-Straße",
        "name": "Rauch & Wagner",
        "shop": "car_repair",
        "website": "https://www.rauchwagner.at/"
      },
      "geometry": {
        "type": "Point",
        "coordinates": [
          15.4250104,
          46.9731823
        ]
      },
      "id": "node/1943451797"
    },
    {
      "type": "Feature",
      "properties": {
        "@id": "node/1943459365",
        "addr:housenumber": "13",
        "addr:postcode": "8141",
        "addr:street": "Rudolf-Diesel-Straße",
        "name": "Volvo Austria GmbH - Werkstätte Unterpremstätten",
        "shop": "car_repair"
      },
      "geometry": {
        "type": "Point",
        "coordinates": [
          15.4272844,
          46.9721647
        ]
      },
      "id": "node/1943459365"
    },
    {
      "type": "Feature",
      "properties": {
        "@id": "node/1948159273",
        "addr:city": "Graz",
        "addr:country": "AT",
        "addr:housenumber": "26a",
        "addr:postcode": "8010",
        "addr:street": "Hüttenbrennergasse",
        "alt_name": "Fasching",
        "contact:email": "kundendienst@tsf.at",
        "contact:phone": "+43 316 81 38 28",
        "contact:website": "www.tsf.at",
        "full_name": "Technisches Service GmbH",
        "name": "Technik braucht Service",
        "office": "company",
        "opening_hours": "Mo-Fr 08:00-12:00, 13:30-16:00",
        "repair": "electronics",
        "shop": "electronics;hardware",
        "short_name": "TSF"
      },
      "geometry": {
        "type": "Point",
        "coordinates": [
          15.4427426,
          47.0564093
        ]
      },
      "id": "node/1948159273"
    },
    {
      "type": "Feature",
      "properties": {
        "@id": "node/1952743702",
        "brand": "MAN",
        "name": "MAN Truck & Bus Vertrieb Österreich AG",
        "operator": "MAN Truck & Bus Vertrieb Österreich AG",
        "shop": "car_repair"
      },
      "geometry": {
        "type": "Point",
        "coordinates": [
          15.4244237,
          47.0305686
        ]
      },
      "id": "node/1952743702"
    },
    {
      "type": "Feature",
      "properties": {
        "@id": "node/1961228503",
        "addr:city": "Fehring",
        "addr:postcode": "8350",
        "addr:street": "Bahnhofstraße",
        "name": "Franz Gady GmbH",
        "operator": "Franz Gady GmbH",
        "shop": "car_repair"
      },
      "geometry": {
        "type": "Point",
        "coordinates": [
          16.0116679,
          46.939176
        ]
      },
      "id": "node/1961228503"
    },
    {
      "type": "Feature",
      "properties": {
        "@id": "node/1971478556",
        "addr:city": "Straß in Steiermark",
        "addr:country": "AT",
        "addr:housename": "Karosseriebtrieb",
        "addr:housenumber": "60",
        "addr:postcode": "8472",
        "addr:street": "Reichsstraße",
        "addr:suburb": "Vogau",
        "at_bev:addr_date": "2018-04-02",
        "name": "Josef Thierschädl GmbH",
        "note": "Karosseriewerkstätte",
        "shop": "car_repair",
        "website": "www.thierschaedl.eu"
      },
      "geometry": {
        "type": "Point",
        "coordinates": [
          15.6071491,
          46.7385432
        ]
      },
      "id": "node/1971478556"
    },
    {
      "type": "Feature",
      "properties": {
        "@id": "node/1988852228",
        "addr:housename": "Autohaus Steinwender Renault",
        "addr:housenumber": "66",
        "addr:postcode": "9344",
        "addr:street": "Kaindorf",
        "name": "Autohaus Steinwender",
        "shop": "car_repair"
      },
      "geometry": {
        "type": "Point",
        "coordinates": [
          14.1671381,
          46.8503742
        ]
      },
      "id": "node/1988852228"
    },
    {
      "type": "Feature",
      "properties": {
        "@id": "node/2006121269",
        "addr:city": "Weiz",
        "addr:country": "AT",
        "addr:housenumber": "5",
        "addr:postcode": "8160",
        "addr:street": "Grazer Straße",
        "car_service": "breakdown;inspection",
        "club": "automobile",
        "name": "ARBÖ",
        "shop": "car_repair"
      },
      "geometry": {
        "type": "Point",
        "coordinates": [
          15.6217489,
          47.2159261
        ]
      },
      "id": "node/2006121269"
    },
    {
      "type": "Feature",
      "properties": {
        "@id": "node/2041005523",
        "name": "Herk",
        "shop": "car_repair"
      },
      "geometry": {
        "type": "Point",
        "coordinates": [
          14.8281236,
          47.2157742
        ]
      },
      "id": "node/2041005523"
    },
    {
      "type": "Feature",
      "properties": {
        "@id": "node/2050501935",
        "addr:city": "Graz",
        "addr:country": "AT",
        "addr:housenumber": "208",
        "addr:postcode": "8051",
        "addr:street": "Wiener Straße",
        "contact:phone": "+43 316 672426",
        "name": "Günther Baldasty",
        "shop": "car_repair",
        "source": "survey"
      },
      "geometry": {
        "type": "Point",
        "coordinates": [
          15.4093769,
          47.0903613
        ]
      },
      "id": "node/2050501935"
    },
    {
      "type": "Feature",
      "properties": {
        "@id": "node/2064768462",
        "addr:housenumber": "22",
        "addr:postcode": "8072",
        "addr:street": "Murbergstraße",
        "name": "Rasenroboter Guru",
        "shop": "repair",
        "website": "https://wwww.rasenroboter.guru"
      },
      "geometry": {
        "type": "Point",
        "coordinates": [
          15.5005669,
          46.9698286
        ]
      },
      "id": "node/2064768462"
    },
    {
      "type": "Feature",
      "properties": {
        "@id": "node/2065294338",
        "name": "Renault Prasser",
        "shop": "car_repair"
      },
      "geometry": {
        "type": "Point",
        "coordinates": [
          14.4450233,
          46.8619426
        ]
      },
      "id": "node/2065294338"
    },
    {
      "type": "Feature",
      "properties": {
        "@id": "node/2066029584",
        "addr:city": "Weinitzen",
        "addr:housenumber": "4",
        "addr:postcode": "8044",
        "addr:street": "Weizerstraße",
        "brand": "Renault",
        "brand:wikidata": "Q6686",
        "brand:wikipedia": "fr:Renault",
        "name": "Renault Sauseng",
        "opening_hours": "Mo-Fr 7:45-16:30",
        "opening_hours:covid19": "open",
        "operator": "Sauseng",
        "payment:cash": "yes",
        "payment:debit_cards": "yes",
        "phone": "+4331323383",
        "service:vehicle:brakes": "yes",
        "service:vehicle:car_parts": "yes",
        "service:vehicle:car_repair": "yes",
        "service:vehicle:diagnostics": "yes",
        "service:vehicle:inspection": "yes",
        "service:vehicle:new_car_sales": "yes",
        "service:vehicle:oil_change": "yes",
        "service:vehicle:tyres": "yes",
        "service:vehicle:used_car_sales": "yes",
        "shop": "car_repair",
        "website": "http://www.autohaus-sauseng.at/"
      },
      "geometry": {
        "type": "Point",
        "coordinates": [
          15.5238359,
          47.140509
        ]
      },
      "id": "node/2066029584"
    },
    {
      "type": "Feature",
      "properties": {
        "@id": "node/2070791006",
        "addr:city": "Friedberg",
        "addr:country": "AT",
        "addr:housenumber": "140",
        "addr:postcode": "8240",
        "addr:street": "Hochstraße",
        "name": "VW Audi Service Lind",
        "opening_hours": "Mo,Fr 07:45-12:00, 13:00-17:00; Tu-Th 07:45-12:00, 13:00-16:30; ",
        "operator": "Lind GmbH & Co KG",
        "phone": "+43 3339 22313-30",
        "shop": "car_repair",
        "website": "https://www.auto-lind.at"
      },
      "geometry": {
        "type": "Point",
        "coordinates": [
          16.0605456,
          47.4342376
        ]
      },
      "id": "node/2070791006"
    },
    {
      "type": "Feature",
      "properties": {
        "@id": "node/2070807888",
        "shop": "car_repair"
      },
      "geometry": {
        "type": "Point",
        "coordinates": [
          16.0610443,
          47.4303223
        ]
      },
      "id": "node/2070807888"
    },
    {
      "type": "Feature",
      "properties": {
        "@id": "node/2112726197",
        "shop": "car_repair"
      },
      "geometry": {
        "type": "Point",
        "coordinates": [
          16.1300064,
          47.5122718
        ]
      },
      "id": "node/2112726197"
    },
    {
      "type": "Feature",
      "properties": {
        "@id": "node/2197778503",
        "addr:city": "Graz",
        "addr:country": "AT",
        "addr:housenumber": "115",
        "addr:postcode": "8020",
        "addr:street": "Lagergasse",
        "contact:email": "deutschmann@mercedes.at",
        "contact:phone": "+43 316 712 139-0",
        "name": "Deutschmann",
        "opening_hours": "Mo-Th 07:00-17:00; Fr 07:00-14:30",
        "shop": "car_repair"
      },
      "geometry": {
        "type": "Point",
        "coordinates": [
          15.4336739,
          47.0579827
        ]
      },
      "id": "node/2197778503"
    },
    {
      "type": "Feature",
      "properties": {
        "@id": "node/2201648057",
        "name": "Kfz Technik Meisterbetrieb & Gartentechnik",
        "operator": "Robert Schleifer",
        "shop": "car_repair"
      },
      "geometry": {
        "type": "Point",
        "coordinates": [
          15.2078379,
          46.9887739
        ]
      },
      "id": "node/2201648057"
    },
    {
      "type": "Feature",
      "properties": {
        "@id": "node/2214708209",
        "name": "Autowerkstatt Jöbstl",
        "shop": "car_repair"
      },
      "geometry": {
        "type": "Point",
        "coordinates": [
          14.7967519,
          46.9587897
        ]
      },
      "id": "node/2214708209"
    },
    {
      "type": "Feature",
      "properties": {
        "@id": "node/2302155411",
        "addr:city": "Seiersberg",
        "addr:housenumber": "104a",
        "addr:postcode": "8055",
        "addr:street": "Mitterstraße",
        "name": "Peter Rothwangl",
        "phone": "+43316 292176",
        "shop": "car_repair"
      },
      "geometry": {
        "type": "Point",
        "coordinates": [
          15.4303574,
          47.019111
        ]
      },
      "id": "node/2302155411"
    },
    {
      "type": "Feature",
      "properties": {
        "@id": "node/2358447965",
        "addr:city": "Weiz",
        "addr:country": "AT",
        "addr:housenumber": "67",
        "addr:postcode": "8160",
        "addr:street": "Dr.-Karl-Widdmann-Straße",
        "contact:phone": "+43 3172 5222",
        "contact:website": "http://www.jagersberger-automobil.at",
        "name": "Ford Jagersberger",
        "shop": "car_repair"
      },
      "geometry": {
        "type": "Point",
        "coordinates": [
          15.620527,
          47.225882
        ]
      },
      "id": "node/2358447965"
    },
    {
      "type": "Feature",
      "properties": {
        "@id": "node/2383158835",
        "name": "Citroen Anton Wels GmbH",
        "shop": "car_repair"
      },
      "geometry": {
        "type": "Point",
        "coordinates": [
          15.9904007,
          47.3250863
        ]
      },
      "id": "node/2383158835"
    },
    {
      "type": "Feature",
      "properties": {
        "@id": "node/2439612185",
        "craft": "car_repair"
      },
      "geometry": {
        "type": "Point",
        "coordinates": [
          14.0604128,
          46.822073
        ]
      },
      "id": "node/2439612185"
    },
    {
      "type": "Feature",
      "properties": {
        "@id": "node/2440869598",
        "addr:city": "Graz",
        "addr:country": "AT",
        "addr:housenumber": "20",
        "addr:street": "Niclas-Strobl-Weg",
        "name": "Ulbel",
        "shop": "car_repair",
        "source": "data.graz.gv.at",
        "website": "ulbel.com"
      },
      "geometry": {
        "type": "Point",
        "coordinates": [
          15.4182062,
          47.0473706
        ]
      },
      "id": "node/2440869598"
    },
    {
      "type": "Feature",
      "properties": {
        "@id": "node/2448322486",
        "addr:city": "Graz",
        "addr:country": "AT",
        "addr:housenumber": "29",
        "addr:postcode": "8045",
        "addr:street": "Andritzer Reichsstraße",
        "name": "Schuh-Service Steingruber",
        "opening_hours": "Mo-Th 08:00-12:00,14:00-17:45; Fr 08:00-12:00",
        "shop": "shoe_repair",
        "source": "survey",
        "wheelchair": "no"
      },
      "geometry": {
        "type": "Point",
        "coordinates": [
          15.4233896,
          47.103057
        ]
      },
      "id": "node/2448322486"
    },
    {
      "type": "Feature",
      "properties": {
        "@id": "node/2510991672",
        "amenity": "bicycle_repair_station",
        "compressed_air": "yes",
        "description": "Available when store next to this station is open",
        "fee": "no",
        "name": "Fahrradservice Box",
        "opening_hours": "Mo-Fr 9:00-18:00",
        "service:bicycle:pump": "yes",
        "service:bicycle:tools": "no",
        "source": "http://graz.radln.net/cms/beitrag/10898897/25359554/"
      },
      "geometry": {
        "type": "Point",
        "coordinates": [
          15.4551024,
          47.0674687
        ]
      },
      "id": "node/2510991672"
    },
    {
      "type": "Feature",
      "properties": {
        "@id": "node/2510999448",
        "amenity": "bicycle_repair_station",
        "check_date:service:bicycle:pump": "2023-04-28",
        "compressed_air": "yes",
        "fee": "no",
        "name": "Fahrradservice Box",
        "service:bicycle:pump": "yes",
        "service:bicycle:tools": "yes",
        "source": "http://graz.radln.net/cms/beitrag/10898897/25359554/"
      },
      "geometry": {
        "type": "Point",
        "coordinates": [
          15.4339138,
          47.078094
        ]
      },
      "id": "node/2510999448"
    },
    {
      "type": "Feature",
      "properties": {
        "@id": "node/2511362208",
        "addr:city": "Graz",
        "addr:country": "AT",
        "addr:housenumber": "10",
        "addr:postcode": "8010",
        "addr:street": "Inffeldgasse",
        "amenity": "bicycle_repair_station",
        "compressed_air": "yes",
        "covered": "yes",
        "fee": "no",
        "name": "Fahrradservice Box",
        "provides": "objects_of_utility",
        "service:bicycle:pump": "yes",
        "service:bicycle:tools": "yes"
      },
      "geometry": {
        "type": "Point",
        "coordinates": [
          15.4605851,
          47.0585249
        ]
      },
      "id": "node/2511362208"
    },
    {
      "type": "Feature",
      "properties": {
        "@id": "node/2552462697",
        "addr:housenumber": "55",
        "addr:place": "Pischelsdorf",
        "addr:postcode": "8212",
        "name": "Werkstatt Durlacher",
        "shop": "car_repair"
      },
      "geometry": {
        "type": "Point",
        "coordinates": [
          15.8044067,
          47.1716342
        ]
      },
      "id": "node/2552462697"
    },
    {
      "type": "Feature",
      "properties": {
        "@id": "node/2576122469",
        "name": "Auto Diepold GmbH",
        "shop": "car_repair"
      },
      "geometry": {
        "type": "Point",
        "coordinates": [
          15.3392472,
          47.555307
        ]
      },
      "id": "node/2576122469"
    },
    {
      "type": "Feature",
      "properties": {
        "@id": "node/2687332057",
        "name": "Fürstaller",
        "shop": "car_repair"
      },
      "geometry": {
        "type": "Point",
        "coordinates": [
          15.2283208,
          47.399747
        ]
      },
      "id": "node/2687332057"
    },
    {
      "type": "Feature",
      "properties": {
        "@id": "node/2738330723",
        "addr:city": "Ternitz Putzmannsdorf",
        "addr:housenumber": "22",
        "addr:postcode": "2630",
        "addr:street": "Fabriksstraße",
        "name": "ATT HandelsgmbH Horst Spreitzhofer",
        "shop": "car_repair"
      },
      "geometry": {
        "type": "Point",
        "coordinates": [
          15.9954557,
          47.6926483
        ]
      },
      "id": "node/2738330723"
    },
    {
      "type": "Feature",
      "properties": {
        "@id": "node/2825018910",
        "contact:email": "office@rgm-kfz.at",
        "contact:phone": "+43 664 3506339",
        "contact:website": "http://www.rgm-kfz.at/",
        "name": "RGM KFZ-Technik und Design",
        "shop": "car_repair"
      },
      "geometry": {
        "type": "Point",
        "coordinates": [
          14.7264163,
          46.7024395
        ]
      },
      "id": "node/2825018910"
    },
    {
      "type": "Feature",
      "properties": {
        "@id": "node/2909024380",
        "addr:city": "Feistritztal",
        "addr:country": "AT",
        "addr:housenumber": "87",
        "addr:place": "Hirnsdorf",
        "addr:postcode": "8221",
        "at_bev:addr_date": "2018-10-01",
        "name": "Landring-Lagerhaus Hirnsdorf",
        "opening_hours": "Mo-Fr 07:30-12:00,13:00-17:00; Sa 07:30-12:00",
        "operator": "Landring Hirnsdorf",
        "shop": "car_repair"
      },
      "geometry": {
        "type": "Point",
        "coordinates": [
          15.8218888,
          47.1922937
        ]
      },
      "id": "node/2909024380"
    },
    {
      "type": "Feature",
      "properties": {
        "@id": "node/2941134357",
        "brand": "Opel & Suzuki",
        "name": "Autohaus Praßl",
        "shop": "car_repair"
      },
      "geometry": {
        "type": "Point",
        "coordinates": [
          15.7689445,
          46.7128219
        ]
      },
      "id": "node/2941134357"
    },
    {
      "type": "Feature",
      "properties": {
        "@id": "node/2941134358",
        "brand": "VW & Audi",
        "name": "Autohaus Schaffer",
        "shop": "car_repair",
        "wheelchair": "yes"
      },
      "geometry": {
        "type": "Point",
        "coordinates": [
          15.7593819,
          46.7070401
        ]
      },
      "id": "node/2941134358"
    },
    {
      "type": "Feature",
      "properties": {
        "@id": "node/2941134361",
        "name": "KFZ Weber",
        "shop": "car_repair"
      },
      "geometry": {
        "type": "Point",
        "coordinates": [
          15.7677772,
          46.7088982
        ]
      },
      "id": "node/2941134361"
    },
    {
      "type": "Feature",
      "properties": {
        "@id": "node/2946622111",
        "brand": "Carglass",
        "brand:wikidata": "Q1035997",
        "brand:wikipedia": "de:Carglass",
        "name": "Carglass",
        "shop": "car_repair"
      },
      "geometry": {
        "type": "Point",
        "coordinates": [
          15.4014774,
          47.0303964
        ]
      },
      "id": "node/2946622111"
    },
    {
      "type": "Feature",
      "properties": {
        "@id": "node/2946622115",
        "addr:city": "Graz",
        "addr:country": "AT",
        "addr:housenumber": "329",
        "addr:postcode": "8054",
        "addr:street": "Kärntner Straße",
        "name": "Dr. Vinyl",
        "shop": "car_repair",
        "source": "survey"
      },
      "geometry": {
        "type": "Point",
        "coordinates": [
          15.4047187,
          47.0299569
        ]
      },
      "id": "node/2946622115"
    },
    {
      "type": "Feature",
      "properties": {
        "@id": "node/2989087770",
        "level": "0",
        "loc_ref": "4",
        "name": "Mister Minit",
        "room": "yes",
        "shop": "shoe_repair"
      },
      "geometry": {
        "type": "Point",
        "coordinates": [
          15.4266844,
          47.06076
        ]
      },
      "id": "node/2989087770"
    },
    {
      "type": "Feature",
      "properties": {
        "@id": "node/3048560577",
        "addr:city": "Gleisdorf",
        "addr:country": "AT",
        "addr:housenumber": "4",
        "addr:postcode": "8200",
        "addr:street": "Ziegelgasse",
        "contact:email": "fil_053@forstinger.co.at",
        "name": "Forstinger",
        "official_name": "Forstinger Österreich GmbH",
        "shop": "car_repair"
      },
      "geometry": {
        "type": "Point",
        "coordinates": [
          15.7071299,
          47.1118885
        ]
      },
      "id": "node/3048560577"
    },
    {
      "type": "Feature",
      "properties": {
        "@id": "node/3050306461",
        "addr:city": "Gleisdorf",
        "addr:country": "AT",
        "addr:housenumber": "18a",
        "addr:postcode": "8200",
        "addr:street": "Bürgergasse",
        "contact:email": "poettler.schuhe@aon.at",
        "craft": "shoemaker",
        "name": "Pöttler Schuhreparatur"
      },
      "geometry": {
        "type": "Point",
        "coordinates": [
          15.7079058,
          47.1049221
        ]
      },
      "id": "node/3050306461"
    },
    {
      "type": "Feature",
      "properties": {
        "@id": "node/3105283254",
        "addr:city": "Graz",
        "addr:country": "AT",
        "addr:housenumber": "65",
        "addr:postcode": "8010",
        "addr:street": "Schießstattgasse",
        "contact:phone": "+43 316 8080-0",
        "name": "Vogl + Co",
        "opening_hours": "Mo-Th 07:30-12:00,12:45-16:30; Fr 07:30-12:00,12:45-15:00",
        "shop": "car_repair"
      },
      "geometry": {
        "type": "Point",
        "coordinates": [
          15.4385615,
          47.062846
        ]
      },
      "id": "node/3105283254"
    },
    {
      "type": "Feature",
      "properties": {
        "@id": "node/3116685566",
        "name": "Lagerhaus",
        "shop": "car_repair"
      },
      "geometry": {
        "type": "Point",
        "coordinates": [
          16.2045346,
          47.5032618
        ]
      },
      "id": "node/3116685566"
    },
    {
      "type": "Feature",
      "properties": {
        "@id": "node/3117535087",
        "addr:city": "Graz",
        "addr:country": "AT",
        "addr:housenumber": "63",
        "addr:postcode": "8010",
        "addr:street": "Obere Bahnstraße",
        "contact:fax": "+43 316 830372",
        "contact:phone": "+43 316 830372",
        "name": "Lackiererei Nezmahen",
        "shop": "car_repair",
        "source": "survey",
        "website": "http://www.nezmahen.at"
      },
      "geometry": {
        "type": "Point",
        "coordinates": [
          15.4434171,
          47.0574812
        ]
      },
      "id": "node/3117535087"
    },
    {
      "type": "Feature",
      "properties": {
        "@id": "node/3132149885",
        "addr:city": "Graz",
        "addr:country": "AT",
        "addr:housenumber": "4",
        "addr:postcode": "8010",
        "addr:street": "Technikerstraße",
        "amenity": "bicycle_repair_station",
        "check_date:service:bicycle:pump": "2022-06-26",
        "compressed_air": "yes",
        "covered": "yes",
        "fee": "no",
        "name": "Fahrradservice Box",
        "opening_hours": "24/7",
        "provides": "objects_of_utility",
        "service:bicycle:pump": "yes",
        "service:bicycle:tools": "yes"
      },
      "geometry": {
        "type": "Point",
        "coordinates": [
          15.4504449,
          47.0681304
        ]
      },
      "id": "node/3132149885"
    },
    {
      "type": "Feature",
      "properties": {
        "@id": "node/3132149886",
        "addr:city": "Graz",
        "addr:country": "AT",
        "addr:housenumber": "3",
        "addr:postcode": "8010",
        "addr:street": "Schmiedgasse",
        "amenity": "bicycle_repair_station",
        "compressed_air": "yes",
        "covered": "yes",
        "fee": "no",
        "name": "Fahrradservice Box",
        "opening_hours": "Mo-Fr 07:00-18:00",
        "provides": "objects_of_utility",
        "service:bicycle:pump": "yes",
        "service:bicycle:tools": "yes"
      },
      "geometry": {
        "type": "Point",
        "coordinates": [
          15.438506,
          47.0701182
        ]
      },
      "id": "node/3132149886"
    },
    {
      "type": "Feature",
      "properties": {
        "@id": "node/3132149887",
        "addr:city": "Graz",
        "addr:country": "AT",
        "addr:housenumber": "3",
        "addr:postcode": "8020",
        "addr:street": "Europaplatz",
        "amenity": "bicycle_repair_station",
        "compressed_air": "yes",
        "covered": "yes",
        "fee": "no",
        "name": "Fahrradservice Box",
        "opening_hours": "24/7",
        "provides": "objects_of_utility",
        "service:bicycle:pump": "yes",
        "service:bicycle:tools": "yes"
      },
      "geometry": {
        "type": "Point",
        "coordinates": [
          15.4175158,
          47.0717361
        ]
      },
      "id": "node/3132149887"
    },
    {
      "type": "Feature",
      "properties": {
        "@id": "node/3166296244",
        "addr:housenumber": "24",
        "addr:postcode": "8073",
        "addr:street": "Kalsdorfer Straße",
        "name": "Koch Kfz GmbH",
        "phone": "+43316 292563",
        "shop": "car_repair"
      },
      "geometry": {
        "type": "Point",
        "coordinates": [
          15.4485983,
          46.9914743
        ]
      },
      "id": "node/3166296244"
    },
    {
      "type": "Feature",
      "properties": {
        "@id": "node/3213787388",
        "addr:city": "Kalsdorf bei Graz",
        "addr:country": "AT",
        "addr:housenumber": "13",
        "addr:postcode": "8401",
        "addr:street": "Ortsried",
        "at_bev:addr_date": "2018-10-01",
        "name": "Klinger",
        "operator": "Klinger OG Kfz- u Motorradtechnik",
        "phone": "+433135 56060",
        "shop": "car_repair",
        "website": "https://klinger-racing.at/"
      },
      "geometry": {
        "type": "Point",
        "coordinates": [
          15.4841438,
          46.9635767
        ]
      },
      "id": "node/3213787388"
    },
    {
      "type": "Feature",
      "properties": {
        "@id": "node/3222042526",
        "addr:city": "Murska Sobota",
        "addr:housenumber": "2",
        "addr:postcode": "9000",
        "addr:street": "Ulica Matije Gubca",
        "name": "Vulco - Avtocenter Horvat",
        "shop": "car_repair"
      },
      "geometry": {
        "type": "Point",
        "coordinates": [
          16.1513375,
          46.6543142
        ]
      },
      "id": "node/3222042526"
    },
    {
      "type": "Feature",
      "properties": {
        "@id": "node/3258072046",
        "addr:city": "Söding-Sankt Johann",
        "addr:country": "AT",
        "addr:housenumber": "171",
        "addr:postcode": "8561",
        "addr:street": "Packerstraße",
        "name": "WIKOTECH Car Service Center",
        "phone": "+433137 28853",
        "shop": "car_repair"
      },
      "geometry": {
        "type": "Point",
        "coordinates": [
          15.2667433,
          47.0026017
        ]
      },
      "id": "node/3258072046"
    },
    {
      "type": "Feature",
      "properties": {
        "@id": "node/3299902700",
        "name": "Poier",
        "shop": "car_repair"
      },
      "geometry": {
        "type": "Point",
        "coordinates": [
          14.5736777,
          47.2142025
        ]
      },
      "id": "node/3299902700"
    },
    {
      "type": "Feature",
      "properties": {
        "@id": "node/3348120812",
        "amenity": "bicycle_repair_station",
        "check_date:service:bicycle:pump": "2023-03-27",
        "fee": "no",
        "opening_hours": "Mo-Fr 07:00-20:00;Sa 07:00-19:00",
        "service:bicycle:pump": "yes"
      },
      "geometry": {
        "type": "Point",
        "coordinates": [
          15.4640488,
          47.0410469
        ]
      },
      "id": "node/3348120812"
    },
    {
      "type": "Feature",
      "properties": {
        "@id": "node/3354145449",
        "addr:city": "Voitsberg",
        "addr:country": "AT",
        "addr:housenumber": "120",
        "addr:postcode": "8572",
        "addr:street": "Grazer Vorstadt",
        "brand": "BMW",
        "brand:wikidata": "Q26678",
        "brand:wikipedia": "en:BMW",
        "contact:phone": "+43 3142 23745",
        "email": "info@papst.bmw.at",
        "name": "Papst GesmbH",
        "shop": "car_repair",
        "website": "https://bmw-papst-voitsberg.at/"
      },
      "geometry": {
        "type": "Point",
        "coordinates": [
          15.1662991,
          47.0383828
        ]
      },
      "id": "node/3354145449"
    },
    {
      "type": "Feature",
      "properties": {
        "@id": "node/3355112704",
        "addr:city": "Graz",
        "addr:country": "AT",
        "addr:housenumber": "5",
        "addr:postcode": "8045",
        "addr:street": "Am Eichengrund",
        "contact:email": "helmut.knoedl@speed.at",
        "contact:phone": "+43 316 691230",
        "contact:website": "http://www.knoedl.co.at/",
        "name": "Helmut A. Knödl",
        "note": "Autospengler",
        "opening_hours": "Mo-We 07:30-12:30, 13:00-17:30;Th 07:30-12:30, 13:00-18:00",
        "operator": "Helmut August Knödl",
        "shop": "car_repair",
        "source": "data.graz.gv.at"
      },
      "geometry": {
        "type": "Point",
        "coordinates": [
          15.4220858,
          47.114339
        ]
      },
      "id": "node/3355112704"
    },
    {
      "type": "Feature",
      "properties": {
        "@id": "node/3373406782",
        "addr:city": "Murska Sobota",
        "addr:housenumber": "50a",
        "addr:postcode": "9000",
        "addr:street": "Ciril Metodova ulica",
        "email": "info@rgsm.si",
        "name": "GSM Servis Murska Sobota",
        "phone": "+386 70 297 990",
        "service": "mobile_phone repair",
        "shop": "mobile_phone",
        "website": "www.rgsm.si"
      },
      "geometry": {
        "type": "Point",
        "coordinates": [
          16.1523022,
          46.663408
        ]
      },
      "id": "node/3373406782"
    },
    {
      "type": "Feature",
      "properties": {
        "@id": "node/3402645954",
        "addr:city": "Markt Hartmannsdorf",
        "addr:postcode": "8311",
        "name": "KFZ Bierbauer",
        "shop": "car_repair"
      },
      "geometry": {
        "type": "Point",
        "coordinates": [
          15.8400525,
          47.0547835
        ]
      },
      "id": "node/3402645954"
    },
    {
      "type": "Feature",
      "properties": {
        "@id": "node/3402658898",
        "addr:city": "Markt Hartmannsdorf",
        "addr:postcode": "8311",
        "name": "KFZ Seidl",
        "shop": "car_repair"
      },
      "geometry": {
        "type": "Point",
        "coordinates": [
          15.8497254,
          47.0512015
        ]
      },
      "id": "node/3402658898"
    },
    {
      "type": "Feature",
      "properties": {
        "@id": "node/3455224825",
        "addr:city": "Graz",
        "addr:country": "AT",
        "addr:housenumber": "25",
        "addr:postcode": "8020",
        "addr:street": "Keplerstraße",
        "amenity": "bicycle_repair_station",
        "compressed_air": "yes",
        "fee": "no",
        "interaction": "diy_and_dit",
        "name": "Fahrradservice Box",
        "operator": "Stadt Graz",
        "provides": "objects_of_utility",
        "service:bicycle:pump": "yes",
        "service:bicycle:tools": "yes",
        "source": "survey"
      },
      "geometry": {
        "type": "Point",
        "coordinates": [
          15.4289375,
          47.075797
        ]
      },
      "id": "node/3455224825"
    },
    {
      "type": "Feature",
      "properties": {
        "@id": "node/3467520552",
        "addr:city": "Hart bei Graz",
        "addr:housenumber": "1-3",
        "addr:postcode": "8075",
        "addr:street": "Industriestraße",
        "contact:email": "office@fahrzeuglackierung.at",
        "contact:phone": "+43 (0) 664 / 542 50 50",
        "description": "Autolackiererei • Spenglerei • Spot-Repair",
        "name": "m. erkinger - Autolackiererei",
        "opening_hours": "Mo-Th 07:00-17:00;Fr 07:00-12:00",
        "owner": "Michael Erkinger",
        "shop": "car_repair",
        "website": "https://www.fahrzeuglackierung.at/"
      },
      "geometry": {
        "type": "Point",
        "coordinates": [
          15.5089641,
          47.0414298
        ]
      },
      "id": "node/3467520552"
    },
    {
      "type": "Feature",
      "properties": {
        "@id": "node/3467643436",
        "amenity": "bicycle_repair_station",
        "check_date:service:bicycle:pump": "2022-04-25",
        "compressed_air": "yes",
        "covered": "yes",
        "fee": "no",
        "name": "Fahrradservice Box",
        "provides": "objects_of_utility",
        "service:bicycle:pump": "yes",
        "service:bicycle:tools": "yes",
        "source": "survey"
      },
      "geometry": {
        "type": "Point",
        "coordinates": [
          15.4677293,
          47.0817063
        ]
      },
      "id": "node/3467643436"
    },
    {
      "type": "Feature",
      "properties": {
        "@id": "node/3512320505",
        "addr:city": "Sankt Barbara im Mürztal",
        "addr:country": "AT",
        "addr:housename": "KFZ Krappinger",
        "addr:housenumber": "5",
        "addr:postcode": "8663",
        "addr:street": "Schmelzstraße",
        "at_bev:addr_date": "2018-10-01",
        "name": "KFZ Krappinger",
        "shop": "car_repair"
      },
      "geometry": {
        "type": "Point",
        "coordinates": [
          15.4960739,
          47.5779946
        ]
      },
      "id": "node/3512320505"
    },
    {
      "type": "Feature",
      "properties": {
        "@id": "node/3570387302",
        "craft": "key_cutter;shoe_repair",
        "level": "-1",
        "source": "survey"
      },
      "geometry": {
        "type": "Point",
        "coordinates": [
          15.4366599,
          47.0720266
        ]
      },
      "id": "node/3570387302"
    },
    {
      "type": "Feature",
      "properties": {
        "@id": "node/3578416208",
        "addr:city": "Graz",
        "addr:country": "AT",
        "addr:housenumber": "161",
        "addr:postcode": "8020",
        "addr:street": "Alte Poststraße",
        "brand": "ÖAMTC",
        "brand:wikidata": "Q306057",
        "brand:wikipedia": "de:Österreichischer Automobil-, Motorrad- und Touring Club",
        "name": "ÖAMTC Graz-West",
        "opening_hours": "24/7",
        "operator": "ÖAMTC",
        "shop": "car_repair"
      },
      "geometry": {
        "type": "Point",
        "coordinates": [
          15.4122068,
          47.0661975
        ]
      },
      "id": "node/3578416208"
    },
    {
      "type": "Feature",
      "properties": {
        "@id": "node/3606684876",
        "addr:city": "Graz",
        "addr:country": "AT",
        "addr:housenumber": "25",
        "addr:postcode": "8020",
        "addr:street": "Triester Straße",
        "name": "ATSW - Kfz-Wuthe",
        "opening_hours": "24/7 \"Pannenhelfer ATSW\"",
        "operator": "Franz Wuthe,ATSW 24h Service GmbH",
        "shop": "car_repair",
        "website": "https://www.atsw.at/",
        "website_1": "http://www.kfz-wuthe.at/"
      },
      "geometry": {
        "type": "Point",
        "coordinates": [
          15.4300295,
          47.0567486
        ]
      },
      "id": "node/3606684876"
    },
    {
      "type": "Feature",
      "properties": {
        "@id": "node/3610478886",
        "addr:housenumber": "84",
        "addr:postcode": "8124",
        "addr:street": "Bachweg",
        "email": "kfz.hasler@magnet.at",
        "name": "Hasler",
        "phone": "+433125 21 57-0",
        "shop": "car_repair"
      },
      "geometry": {
        "type": "Point",
        "coordinates": [
          15.2262412,
          47.2282616
        ]
      },
      "id": "node/3610478886"
    },
    {
      "type": "Feature",
      "properties": {
        "@id": "node/3671887060",
        "addr:city": "Diepolz",
        "addr:housenumber": "1",
        "addr:postcode": "2620",
        "addr:street": "Gasslweg",
        "name": "Autoglasdienst Rottensteiner",
        "operator": "Martin Rottensteiner",
        "shop": "car_repair"
      },
      "geometry": {
        "type": "Point",
        "coordinates": [
          16.0844614,
          47.6984599
        ]
      },
      "id": "node/3671887060"
    },
    {
      "type": "Feature",
      "properties": {
        "@id": "node/3697662204",
        "name": "Autohaus Pachern",
        "operator": "Hr. Kopf",
        "shop": "car_repair"
      },
      "geometry": {
        "type": "Point",
        "coordinates": [
          15.51906,
          47.0432742
        ]
      },
      "id": "node/3697662204"
    },
    {
      "type": "Feature",
      "properties": {
        "@id": "node/3697665261",
        "addr:city": "Sankt Margarethen bei Knittelfeld",
        "addr:country": "AT",
        "addr:housenumber": "8",
        "addr:postcode": "8720",
        "addr:street": "Hauptstraße",
        "brand": "Mazda",
        "name": "Mazda",
        "phone": "+43 3512 85791",
        "shop": "car_repair"
      },
      "geometry": {
        "type": "Point",
        "coordinates": [
          14.8572246,
          47.2255299
        ]
      },
      "id": "node/3697665261"
    },
    {
      "type": "Feature",
      "properties": {
        "@id": "node/3703229724",
        "name": "EHS Elektrohaushaltsgeräte",
        "office": "company",
        "service": "repair"
      },
      "geometry": {
        "type": "Point",
        "coordinates": [
          14.2796973,
          46.6545372
        ]
      },
      "id": "node/3703229724"
    },
    {
      "type": "Feature",
      "properties": {
        "@id": "node/3718905074",
        "addr:city": "Feldbach",
        "addr:housenumber": "14",
        "addr:place": "Höflach",
        "addr:postcode": "8330",
        "name": "Johann Zelenka",
        "phone": "+43 3159 2124",
        "shop": "car_repair",
        "website": "http://www.auto-zelenka.at/"
      },
      "geometry": {
        "type": "Point",
        "coordinates": [
          15.9153921,
          46.9156652
        ]
      },
      "id": "node/3718905074"
    },
    {
      "type": "Feature",
      "properties": {
        "@id": "node/3828992474",
        "addr:city": "Rosental an der Kainach",
        "addr:country": "AT",
        "addr:housenumber": "65",
        "addr:postcode": "8582",
        "addr:street": "Hauptstraße",
        "name": "Forstinger",
        "operator": "Forstinger Österreich GmbH",
        "phone": "05 9101-9047",
        "shop": "car_repair",
        "website": "https://www.forstinger.com/"
      },
      "geometry": {
        "type": "Point",
        "coordinates": [
          15.1163501,
          47.0541571
        ]
      },
      "id": "node/3828992474"
    },
    {
      "type": "Feature",
      "properties": {
        "@id": "node/3853314031",
        "addr:city": "Leoben",
        "addr:country": "AT",
        "addr:housenumber": "19",
        "addr:postcode": "8700",
        "addr:street": "Judendorfer Straße",
        "addr:suburb": "Judendorf",
        "name": "Bim Folien & Autoglas",
        "opening_hours": "Mo-Fr 08:00-12:00,13:00-17:00",
        "phone": "+43 3842 23028",
        "shop": "car_repair",
        "source": "survey; basemap.at Orthofoto; local_knowledge",
        "website": "https://bim-autoglas.at/"
      },
      "geometry": {
        "type": "Point",
        "coordinates": [
          15.1003941,
          47.3846356
        ]
      },
      "id": "node/3853314031"
    },
    {
      "type": "Feature",
      "properties": {
        "@id": "node/3900811078",
        "addr:city": "Lavamünd",
        "addr:country": "AT",
        "addr:housenumber": "23",
        "addr:postcode": "9473",
        "addr:street": "Lavamünd",
        "email": "office@autohaus-toefferl.at",
        "name": "Autohaus Töfferl",
        "phone": "+4343562470",
        "shop": "car_repair",
        "website": "www.autohaus-toefferl.at"
      },
      "geometry": {
        "type": "Point",
        "coordinates": [
          14.9407737,
          46.6421087
        ]
      },
      "id": "node/3900811078"
    },
    {
      "type": "Feature",
      "properties": {
        "@id": "node/3900811977",
        "addr:city": "Lavamünd",
        "addr:country": "AT",
        "addr:housenumber": "12",
        "addr:postcode": "9473",
        "addr:street": "Lavamünd",
        "name": "Sander",
        "phone": "+4343562315",
        "shop": "car_repair"
      },
      "geometry": {
        "type": "Point",
        "coordinates": [
          14.9427003,
          46.6413159
        ]
      },
      "id": "node/3900811977"
    },
    {
      "type": "Feature",
      "properties": {
        "@id": "node/3928461921",
        "addr:city": "Bruck an der Mur",
        "addr:country": "AT",
        "addr:housenumber": "17",
        "addr:postcode": "8600",
        "addr:street": "Grazer Straße",
        "name": "Ford-Reichel",
        "shop": "car_repair"
      },
      "geometry": {
        "type": "Point",
        "coordinates": [
          15.2769902,
          47.4067379
        ]
      },
      "id": "node/3928461921"
    },
    {
      "type": "Feature",
      "properties": {
        "@id": "node/3931123602",
        "addr:city": "Fehring",
        "addr:housenumber": "16",
        "addr:place": "Hatzendorf",
        "addr:postcode": "8361",
        "name": "Auner Aufbau",
        "shop": "car_repair",
        "website": "http://www.auner-aufbau.at/"
      },
      "geometry": {
        "type": "Point",
        "coordinates": [
          16.0005822,
          46.9760186
        ]
      },
      "id": "node/3931123602"
    },
    {
      "type": "Feature",
      "properties": {
        "@id": "node/3941439175",
        "addr:city": "Graz",
        "addr:country": "AT",
        "addr:housenumber": "22",
        "addr:postcode": "8010",
        "addr:street": "Opernring",
        "brand:wikidata": "Q20718",
        "brand:wikipedia": "de:Samsung Electronics",
        "check_date": "2023-04-26",
        "craft": "electronics_repair",
        "email": "service@samsung.at",
        "mobile_phone:repair": "only",
        "name": "Samsung Customer Service Center Graz",
        "old_name": "Crystals United",
        "opening_hours": "Mo 09:30-18:30; Tu-Th 09:30-18:00; Fr 09:30-18:30; Sa, Su, PH off",
        "operator": "m-rep Service GmbH",
        "phone": "+43 800 7267864",
        "url": "https://m-rep.at/",
        "website": "https://www.samsung.com/at/support/service-center/"
      },
      "geometry": {
        "type": "Point",
        "coordinates": [
          15.4428759,
          47.0685857
        ]
      },
      "id": "node/3941439175"
    },
    {
      "type": "Feature",
      "properties": {
        "@id": "node/4025918702",
        "addr:housenumber": "52",
        "addr:postcode": "8565",
        "addr:street": "Hallersdorf",
        "name": "HUSSLER KFZ - Landtechnik",
        "phone": "+433143 32 53",
        "shop": "car_repair",
        "website": "https://www.hussler.at/"
      },
      "geometry": {
        "type": "Point",
        "coordinates": [
          15.2469624,
          47.0008232
        ]
      },
      "id": "node/4025918702"
    },
    {
      "type": "Feature",
      "properties": {
        "@id": "node/4036879382",
        "addr:city": "Burgau",
        "addr:housenumber": "266",
        "addr:postcode": "8291",
        "addr:street": "Neudauer Straße",
        "name": "Autohaus Florian",
        "shop": "car_repair"
      },
      "geometry": {
        "type": "Point",
        "coordinates": [
          16.1028616,
          47.1481982
        ]
      },
      "id": "node/4036879382"
    },
    {
      "type": "Feature",
      "properties": {
        "@id": "node/4040882005",
        "amenity": "bicycle_repair_station",
        "service:bicycle:pump": "yes",
        "source": "survey"
      },
      "geometry": {
        "type": "Point",
        "coordinates": [
          15.4566759,
          47.0613057
        ]
      },
      "id": "node/4040882005"
    },
    {
      "type": "Feature",
      "properties": {
        "@id": "node/4047585814",
        "name": "Slemenik",
        "shop": "car_repair"
      },
      "geometry": {
        "type": "Point",
        "coordinates": [
          14.3140446,
          46.6859672
        ]
      },
      "id": "node/4047585814"
    },
    {
      "type": "Feature",
      "properties": {
        "@id": "node/4051146758",
        "addr:city": "Graz",
        "addr:country": "AT",
        "addr:housenumber": "216",
        "addr:postcode": "8055",
        "addr:street": "Puchstraße",
        "contact:email": "service@sk-werkstatt.at",
        "contact:fax": "+43316 89 06 49-15",
        "contact:phone": "+43316 89 06 49",
        "name": "S&K Werkstatt GmbH",
        "opening_hours": "Mo-Th 07:15-12:00, 13:00-17:00; Fr 07:15-14:00",
        "shop": "car_repair",
        "website": "http://www.sk-werkstatt.at/"
      },
      "geometry": {
        "type": "Point",
        "coordinates": [
          15.4376926,
          47.0344357
        ]
      },
      "id": "node/4051146758"
    },
    {
      "type": "Feature",
      "properties": {
        "@id": "node/4078028838",
        "addr:city": "Eichkögl",
        "addr:housenumber": "111",
        "addr:place": "Eichkögl",
        "addr:postcode": "8322",
        "name": "Auto Pferschi",
        "operator": "Walter Pferschi",
        "phone": "+43 664 1831851",
        "shop": "car_repair",
        "website": "http://www.auto-pferschi.at/"
      },
      "geometry": {
        "type": "Point",
        "coordinates": [
          15.7898856,
          47.0224345
        ]
      },
      "id": "node/4078028838"
    },
    {
      "type": "Feature",
      "properties": {
        "@id": "node/4078428465",
        "addr:city": "Kirchberg an der Raab",
        "addr:housenumber": "148",
        "addr:place": "Fladnitz im Raabtal",
        "addr:postcode": "8322",
        "name": "Autoglasexpress Weber",
        "operator": "Autoglasexpress Weber OEG",
        "shop": "car_repair"
      },
      "geometry": {
        "type": "Point",
        "coordinates": [
          15.7870109,
          46.9967177
        ]
      },
      "id": "node/4078428465"
    },
    {
      "type": "Feature",
      "properties": {
        "@id": "node/4089539393",
        "addr:city": "Deutsch Goritz",
        "addr:housenumber": "5",
        "addr:place": "Schrötten bei Deutsch Goritz",
        "addr:postcode": "8483",
        "name": "Friedrich Kindermann",
        "shop": "car_repair"
      },
      "geometry": {
        "type": "Point",
        "coordinates": [
          15.8235633,
          46.7725835
        ]
      },
      "id": "node/4089539393"
    },
    {
      "type": "Feature",
      "properties": {
        "@id": "node/4101936389",
        "addr:city": "Wildon",
        "addr:country": "AT",
        "addr:housenumber": "82",
        "addr:postcode": "8410",
        "addr:street": "Bundesstraße",
        "at_bev:addr_date": "2017-04-07",
        "shop": "car_repair"
      },
      "geometry": {
        "type": "Point",
        "coordinates": [
          15.4885353,
          46.8970184
        ]
      },
      "id": "node/4101936389"
    },
    {
      "type": "Feature",
      "properties": {
        "@id": "node/4149461888",
        "name": "Karosserie Koch",
        "shop": "car_repair"
      },
      "geometry": {
        "type": "Point",
        "coordinates": [
          14.3137316,
          46.6501242
        ]
      },
      "id": "node/4149461888"
    },
    {
      "type": "Feature",
      "properties": {
        "@id": "node/4211076024",
        "name": "Porsche Austria IBS Stützpunkt Graz 1",
        "shop": "car_repair"
      },
      "geometry": {
        "type": "Point",
        "coordinates": [
          15.4217023,
          47.0625161
        ]
      },
      "id": "node/4211076024"
    },
    {
      "type": "Feature",
      "properties": {
        "@id": "node/4211084582",
        "addr:city": "Graz",
        "addr:country": "AT",
        "addr:housenumber": "34",
        "addr:postcode": "8054",
        "addr:street": "Am Jägergrund",
        "name": "Porsche Austria IBS Stützpunkt Graz 2",
        "shop": "car_repair"
      },
      "geometry": {
        "type": "Point",
        "coordinates": [
          15.4016524,
          47.0400606
        ]
      },
      "id": "node/4211084582"
    },
    {
      "type": "Feature",
      "properties": {
        "@id": "node/4248302794",
        "amenity": "bicycle_repair_station"
      },
      "geometry": {
        "type": "Point",
        "coordinates": [
          15.4595504,
          47.0747273
        ]
      },
      "id": "node/4248302794"
    },
    {
      "type": "Feature",
      "properties": {
        "@id": "node/4343833818",
        "addr:city": "Allerheiligen bei Wildon",
        "addr:housenumber": "252",
        "addr:postcode": "8412",
        "addr:street": "Allerheiligen bei Wildon",
        "name": "Mister Z Special Car Service",
        "operator": "Zitz Andreas",
        "shop": "car_repair"
      },
      "geometry": {
        "type": "Point",
        "coordinates": [
          15.5510792,
          46.9134946
        ]
      },
      "id": "node/4343833818"
    },
    {
      "type": "Feature",
      "properties": {
        "@id": "node/4343845190",
        "addr:city": "Allerheiligen bei Wildon",
        "addr:housenumber": "36",
        "addr:postcode": "8412",
        "addr:street": "Siebing",
        "name": "KFZ Landtechnik Stradner",
        "operator": "Stradner Johann",
        "shop": "car_repair"
      },
      "geometry": {
        "type": "Point",
        "coordinates": [
          15.5823424,
          46.9147586
        ]
      },
      "id": "node/4343845190"
    },
    {
      "type": "Feature",
      "properties": {
        "@id": "node/4349648589",
        "brand": "Ford",
        "brand:wikidata": "Q44294",
        "brand:wikipedia": "en:Ford Motor Company",
        "name": "Ford",
        "shop": "car_repair"
      },
      "geometry": {
        "type": "Point",
        "coordinates": [
          15.1107317,
          47.3815475
        ]
      },
      "id": "node/4349648589"
    },
    {
      "type": "Feature",
      "properties": {
        "@id": "node/4404536301",
        "addr:city": "Gratkorn",
        "addr:housenumber": "4",
        "addr:postcode": "8101",
        "addr:street": "Sportplatzgasse",
        "addr:suburb": "Kirchenviertel",
        "contact:phone": "+43 3124 22 196",
        "contact:website": "pirsch.at",
        "name": "Autohaus Pirsch",
        "shop": "car_repair"
      },
      "geometry": {
        "type": "Point",
        "coordinates": [
          15.3389539,
          47.131405
        ]
      },
      "id": "node/4404536301"
    },
    {
      "type": "Feature",
      "properties": {
        "@id": "node/4505921727",
        "addr:city": "Graz",
        "addr:country": "AT",
        "addr:housenumber": "45",
        "addr:street": "Lendkai",
        "amenity": "workshop",
        "contact:calendar": "https://www.repaircafe-graz.at/veranstaltungen/",
        "contact:facebook": "https://www.facebook.com/repaircafe.graz",
        "contact:twitter": "https://twitter.com/repaircafe_graz",
        "contact:website": "https://www.repaircafe-graz.at/",
        "name": "Repair Café Graz",
        "repair": "assisted_self_service"
      },
      "geometry": {
        "type": "Point",
        "coordinates": [
          15.4331454,
          47.0754123
        ]
      },
      "id": "node/4505921727"
    },
    {
      "type": "Feature",
      "properties": {
        "@id": "node/4607600347",
        "addr:city": "Frohnleiten",
        "addr:housenumber": "19",
        "addr:postcode": "8130",
        "addr:street": "Parkweg",
        "name": "Fuchs Kfz-Technik Meisterbetrieb",
        "shop": "car_repair"
      },
      "geometry": {
        "type": "Point",
        "coordinates": [
          15.3248401,
          47.2713095
        ]
      },
      "id": "node/4607600347"
    },
    {
      "type": "Feature",
      "properties": {
        "@id": "node/4623316296",
        "addr:city": "Judenburg",
        "addr:housenumber": "134",
        "addr:postcode": "8750",
        "addr:street": "Burggasse",
        "fax": "03572 82477-7",
        "name": "Autohaus Kössler GmbH",
        "phone": "03572 82477",
        "shop": "car_repair"
      },
      "geometry": {
        "type": "Point",
        "coordinates": [
          14.6335152,
          47.1718543
        ]
      },
      "id": "node/4623316296"
    },
    {
      "type": "Feature",
      "properties": {
        "@id": "node/4638226115",
        "name": "KFZ Karl Neff",
        "operator": "Karl Neff",
        "shop": "car_repair"
      },
      "geometry": {
        "type": "Point",
        "coordinates": [
          13.9444794,
          46.6196758
        ]
      },
      "id": "node/4638226115"
    },
    {
      "type": "Feature",
      "properties": {
        "@id": "node/4671943862",
        "name": "KFZ Erhard",
        "shop": "car_repair"
      },
      "geometry": {
        "type": "Point",
        "coordinates": [
          15.4942629,
          46.744788
        ]
      },
      "id": "node/4671943862"
    },
    {
      "type": "Feature",
      "properties": {
        "@id": "node/4718068989",
        "addr:city": "Fohnsdorf",
        "addr:housenumber": "21",
        "addr:postcode": "8753",
        "addr:street": "Judenburgerstraße",
        "name": "KFZ-Schaffer",
        "phone": "+43 3573 3 44 85",
        "shop": "car_repair"
      },
      "geometry": {
        "type": "Point",
        "coordinates": [
          14.6798092,
          47.203662
        ]
      },
      "id": "node/4718068989"
    },
    {
      "type": "Feature",
      "properties": {
        "@id": "node/4768371054",
        "name": "Welog",
        "shop": "car_repair"
      },
      "geometry": {
        "type": "Point",
        "coordinates": [
          15.9573095,
          47.0793087
        ]
      },
      "id": "node/4768371054"
    },
    {
      "type": "Feature",
      "properties": {
        "@id": "node/4772594679",
        "addr:housenumber": "1",
        "addr:postcode": "8101",
        "addr:street": "Eggenfelder Straße",
        "contact:mobile": "+43 676 9707656",
        "name": "TALUS Performance Tuning",
        "shop": "car_repair"
      },
      "geometry": {
        "type": "Point",
        "coordinates": [
          15.3333789,
          47.1417276
        ]
      },
      "id": "node/4772594679"
    },
    {
      "type": "Feature",
      "properties": {
        "@id": "node/4801823739",
        "addr:city": "Wildon",
        "addr:housenumber": "1",
        "addr:postcode": "8410",
        "addr:street": "Wurzinger Straße",
        "brand": "Opel",
        "name": "Kfz Walter Krobath",
        "operator": "Walter Krobath",
        "phone": "+43 31823270",
        "shop": "car_repair"
      },
      "geometry": {
        "type": "Point",
        "coordinates": [
          15.5201318,
          46.8870968
        ]
      },
      "id": "node/4801823739"
    },
    {
      "type": "Feature",
      "properties": {
        "@id": "node/4801823740",
        "addr:city": "Wildon",
        "addr:housenumber": "1",
        "addr:postcode": "8410",
        "addr:street": "Wurzinger Straße",
        "name": "KFZ Service und Reparatur Wolfgang Gschiel",
        "operator": "Wolfgang Gschiel",
        "payment:coins": "yes",
        "payment:notes": "yes",
        "phone": "+43 (0) 664 232 65 06",
        "shop": "car_repair",
        "wheelchair": "yes"
      },
      "geometry": {
        "type": "Point",
        "coordinates": [
          15.5200332,
          46.8868807
        ]
      },
      "id": "node/4801823740"
    },
    {
      "type": "Feature",
      "properties": {
        "@id": "node/4801828881",
        "addr:city": "Kalsdorf bei Graz",
        "addr:housenumber": "160",
        "addr:postcode": "8401",
        "addr:street": "Hauptstraße",
        "email": "office@konrad-ornig.at",
        "name": "KFZ Technik Konrad-Ornig OG",
        "operator": "Konrad-Ornig",
        "phone": "03135 53897",
        "shop": "car_repair",
        "website": "http://www.konrad-ornig.at/"
      },
      "geometry": {
        "type": "Point",
        "coordinates": [
          15.4798463,
          46.9581229
        ]
      },
      "id": "node/4801828881"
    },
    {
      "type": "Feature",
      "properties": {
        "@id": "node/4816409698",
        "addr:city": "Paldau",
        "addr:housenumber": "146",
        "addr:place": "Puch",
        "addr:postcode": "8341",
        "craft": "handicraft",
        "name": "Ema Spare Parts & Repair e.U."
      },
      "geometry": {
        "type": "Point",
        "coordinates": [
          15.7761947,
          46.9414557
        ]
      },
      "id": "node/4816409698"
    },
    {
      "type": "Feature",
      "properties": {
        "@id": "node/4816419544",
        "addr:city": "Paldau",
        "addr:housenumber": "16",
        "addr:place": "Puch",
        "addr:postcode": "8341",
        "name": "Fahrzeugaufbetreitung Schreiber",
        "phone": "+43 664 1344486",
        "shop": "car_repair"
      },
      "geometry": {
        "type": "Point",
        "coordinates": [
          15.7682341,
          46.9388519
        ]
      },
      "id": "node/4816419544"
    },
    {
      "type": "Feature",
      "properties": {
        "@id": "node/4823142131",
        "name": "Mazda Werkstätte Landl Ges.m.b.H",
        "shop": "car_repair"
      },
      "geometry": {
        "type": "Point",
        "coordinates": [
          13.8801741,
          47.4465118
        ]
      },
      "id": "node/4823142131"
    },
    {
      "type": "Feature",
      "properties": {
        "@id": "node/4841840284",
        "email": "office@kfz-pletz.at",
        "fax": "+43 3577 / 23846 - 20",
        "name": "KFZ - PLETZ",
        "opening_hours": "Mo-Fr 08:00-12:00,13:00-17:00",
        "phone": "+43 3577 / 23 846",
        "shop": "car_repair",
        "website": "www.kfz-pletz.at/index.php"
      },
      "geometry": {
        "type": "Point",
        "coordinates": [
          14.7221678,
          47.1951713
        ]
      },
      "id": "node/4841840284"
    },
    {
      "type": "Feature",
      "properties": {
        "@id": "node/4841840285",
        "brand": "Toyota",
        "email": "office@sapper.co.at",
        "name": "Jörg Sapper GmbH",
        "phone": "+43 3577/26677",
        "service": "dealer;repair",
        "shop": "car",
        "website": "www.sapper.co.at"
      },
      "geometry": {
        "type": "Point",
        "coordinates": [
          14.7212881,
          47.1952169
        ]
      },
      "id": "node/4841840285"
    },
    {
      "type": "Feature",
      "properties": {
        "@id": "node/4844614904",
        "addr:city": "Gornja Radgona",
        "addr:housenumber": "30C",
        "addr:postcode": "9250",
        "addr:street": "Ljutomerska cesta",
        "name": "Avtoservis",
        "shop": "car_repair"
      },
      "geometry": {
        "type": "Point",
        "coordinates": [
          16.0061794,
          46.664282
        ]
      },
      "id": "node/4844614904"
    },
    {
      "type": "Feature",
      "properties": {
        "@id": "node/4849852224",
        "addr:city": "Spielberg",
        "addr:country": "AT",
        "addr:housenumber": "1",
        "addr:postcode": "8724",
        "addr:street": "Unterer-Bahnweg",
        "opening_hours": "Mo-Fr 09:00-12:00,13:30-18:00",
        "phone": "+43 3512 85212",
        "service": "parts",
        "shop": "car_repair"
      },
      "geometry": {
        "type": "Point",
        "coordinates": [
          14.7953726,
          47.200555
        ]
      },
      "id": "node/4849852224"
    },
    {
      "type": "Feature",
      "properties": {
        "@id": "node/4875657703",
        "addr:housename": "Reichhard",
        "addr:housenumber": "211",
        "addr:postcode": "8402",
        "addr:street": "Bundesstraße",
        "car_parts": "yes",
        "name": "OPEL-Gebrauchtteile Reichhard",
        "shop": "car_repair",
        "spare_parts": "yes",
        "website": "http://www.auto-reichhardt.com"
      },
      "geometry": {
        "type": "Point",
        "coordinates": [
          15.4813899,
          46.9131046
        ]
      },
      "id": "node/4875657703"
    },
    {
      "type": "Feature",
      "properties": {
        "@id": "node/4907082825",
        "addr:housenumber": "29",
        "addr:postcode": "8750",
        "addr:street": "Grünhüblgasse",
        "name": "Abschlepp und Bergedienst Briscek",
        "phone": "06769676611",
        "shop": "car_repair"
      },
      "geometry": {
        "type": "Point",
        "coordinates": [
          14.6339401,
          47.1742747
        ]
      },
      "id": "node/4907082825"
    },
    {
      "type": "Feature",
      "properties": {
        "@id": "node/4932924122",
        "addr:city": "Judenburg",
        "addr:country": "AT",
        "addr:housenumber": "27",
        "addr:postcode": "8750",
        "addr:street": "Grünhüblgasse",
        "at_bev:addr_date": "2019-10-01",
        "name": "adAUTODIENST Glantschnig",
        "phone": "0357282160",
        "shop": "car_repair"
      },
      "geometry": {
        "type": "Point",
        "coordinates": [
          14.6343517,
          47.1738937
        ]
      },
      "id": "node/4932924122"
    },
    {
      "type": "Feature",
      "properties": {
        "@id": "node/4988804465",
        "addr:city": "Eisenerz",
        "addr:country": "AT",
        "addr:housenumber": "110",
        "addr:postcode": "8790",
        "addr:street": "Krumpentaler Straße",
        "at_bev:addr_date": "2017-04-07",
        "name": "Autohaus Neumann",
        "shop": "car_repair"
      },
      "geometry": {
        "type": "Point",
        "coordinates": [
          14.8837683,
          47.5240114
        ]
      },
      "id": "node/4988804465"
    },
    {
      "type": "Feature",
      "properties": {
        "@id": "node/5143746659",
        "addr:city": "St. Veit an der Glan",
        "addr:country": "AT",
        "addr:housenumber": "59",
        "addr:postcode": "9300",
        "addr:street": "Villacher Straße",
        "at_bev:addr_date": "2017-04-07",
        "car_service": "breakdown;inspection",
        "club": "automobile",
        "contact:email": "pz.stveitglan@arboe.at",
        "contact:fax": "+43 4212 5824",
        "contact:phone": "+43 5 0123 2211",
        "name": "ARBÖ Prüfzentrum St. Veit/Glan",
        "opening_hours": "Mo-Su 07:00-19:00",
        "operator": "ARBÖ",
        "shop": "car_repair"
      },
      "geometry": {
        "type": "Point",
        "coordinates": [
          14.3439643,
          46.7580433
        ]
      },
      "id": "node/5143746659"
    },
    {
      "type": "Feature",
      "properties": {
        "@id": "node/5143768222",
        "addr:city": "Feldkirchen in Kärnten",
        "addr:country": "AT",
        "addr:housenumber": "31",
        "addr:postcode": "9560",
        "addr:street": "10.-Oktober-Straße",
        "at_bev:addr_date": "2017-04-07",
        "car_service": "breakdown;inspection",
        "club": "automobile",
        "email": "pz.feldkirchen@arboe.at",
        "fax": "+43 4276 2933915",
        "name": "ARBÖ Prüfzentrum Feldkirchen",
        "opening_hours": "Mo-Fr 08:00-12:00, 13:00-17:00",
        "operator": "ARBÖ",
        "phone": "+43 50 1232203",
        "service": "repair",
        "shop": "car_repair"
      },
      "geometry": {
        "type": "Point",
        "coordinates": [
          14.0990089,
          46.7224505
        ]
      },
      "id": "node/5143768222"
    },
    {
      "type": "Feature",
      "properties": {
        "@id": "node/5200561042",
        "addr:city": "Feldbach",
        "addr:housenumber": "32",
        "addr:place": "Untergiem",
        "addr:postcode": "8330",
        "name": "Cetintas Talip",
        "operator": "Cetintas Talip",
        "service:vehicle:brakes": "yes",
        "service:vehicle:car_repair": "yes",
        "service:vehicle:oil_change": "yes",
        "service:vehicle:repairs": "yes",
        "service:vehicle:tyres": "yes",
        "shop": "car_repair"
      },
      "geometry": {
        "type": "Point",
        "coordinates": [
          15.8906117,
          46.9248529
        ]
      },
      "id": "node/5200561042"
    },
    {
      "type": "Feature",
      "properties": {
        "@id": "node/5259541039",
        "name": "Lagerhaus",
        "shop": "car_repair"
      },
      "geometry": {
        "type": "Point",
        "coordinates": [
          15.3393775,
          47.1998062
        ]
      },
      "id": "node/5259541039"
    },
    {
      "type": "Feature",
      "properties": {
        "@id": "node/5294370770",
        "name": "Greimel-Puchas",
        "shop": "car_repair"
      },
      "geometry": {
        "type": "Point",
        "coordinates": [
          15.543639,
          47.0853914
        ]
      },
      "id": "node/5294370770"
    },
    {
      "type": "Feature",
      "properties": {
        "@id": "node/5454224350",
        "email": "office@auto-hartleb.at",
        "fax": "+43 3577 - 22 303",
        "name": "Auto Hartleb",
        "opening_hours": "Mo-Th 08:00-12:00,13:00-17:00; Fr 08:00-12:00,13:00-15:30",
        "phone": "+43 3577 24138",
        "service": "repair",
        "shop": "car_repair",
        "website": "http://www.auto-hartleb.at/"
      },
      "geometry": {
        "type": "Point",
        "coordinates": [
          14.7323415,
          47.1963031
        ]
      },
      "id": "node/5454224350"
    },
    {
      "type": "Feature",
      "properties": {
        "@id": "node/5478623872",
        "addr:city": "Fohnsdorf-Gabelhofen",
        "addr:country": "AT",
        "addr:housenumber": "30",
        "addr:postcode": "8753",
        "addr:street": "Bundesstraße",
        "name": "Lüftenegger",
        "phone": "+43 0664 3412865",
        "shop": "car_repair"
      },
      "geometry": {
        "type": "Point",
        "coordinates": [
          14.6730928,
          47.1827336
        ]
      },
      "id": "node/5478623872"
    },
    {
      "type": "Feature",
      "properties": {
        "@id": "node/5478656712",
        "shop": "car_repair"
      },
      "geometry": {
        "type": "Point",
        "coordinates": [
          15.7761895,
          47.2288379
        ]
      },
      "id": "node/5478656712"
    },
    {
      "type": "Feature",
      "properties": {
        "@id": "node/5522312422",
        "addr:city": "Bad Gleichenberg",
        "addr:housenumber": "99",
        "addr:postcode": "8344",
        "addr:street": "Steinrieglstraße",
        "name": "Performance Chiptuning",
        "operator": "Manfred Krobath",
        "service:vehicle:electrical": "yes",
        "shop": "car_repair",
        "website": "http://www.performance-chiptuning.at/"
      },
      "geometry": {
        "type": "Point",
        "coordinates": [
          15.9262934,
          46.8886929
        ]
      },
      "id": "node/5522312422"
    },
    {
      "type": "Feature",
      "properties": {
        "@id": "node/5580143619",
        "addr:city": "Zeltweg",
        "addr:country": "AT",
        "addr:housenumber": "113a",
        "addr:postcode": "8740",
        "addr:street": "Hauptstraße",
        "email": "office@kfz-reibenbacher.at",
        "name": "KFZ Reibenbacher",
        "phone": "+43 664 40 23 32 7",
        "service": "repair",
        "shop": "car_repair",
        "website": "http://www.kfz-reibenbacher.at/"
      },
      "geometry": {
        "type": "Point",
        "coordinates": [
          14.7468361,
          47.1902648
        ]
      },
      "id": "node/5580143619"
    },
    {
      "type": "Feature",
      "properties": {
        "@id": "node/5604806357",
        "addr:city": "Zeltweg",
        "addr:country": "AT",
        "addr:housenumber": "14",
        "addr:postcode": "8740",
        "addr:street": "Weißkirchnerstraße",
        "email": "office@kfz-spannring.at",
        "fax": "+43 3577 80978",
        "name": "Spannring",
        "phone": "+43 699/ 122 48 008",
        "service": "repair",
        "shop": "car_repair",
        "website": "http://www.kfz-spannring.at/?p=y"
      },
      "geometry": {
        "type": "Point",
        "coordinates": [
          14.7536516,
          47.1851554
        ]
      },
      "id": "node/5604806357"
    },
    {
      "type": "Feature",
      "properties": {
        "@id": "node/5606435020",
        "addr:city": "EPPENSTEIN",
        "addr:country": "AT",
        "addr:district": "Murtal",
        "addr:housenumber": "37A",
        "addr:place": "Eppenstein",
        "addr:postcode": "8741",
        "email": "OFFICE@KFZ-HEBEIN.AT",
        "name": "KFZ Hebein",
        "phone": "+43 664 91 51 113",
        "shop": "car_repair",
        "website": "http://www.kfz-hebein.at/home.html"
      },
      "geometry": {
        "type": "Point",
        "coordinates": [
          14.7387198,
          47.1316843
        ]
      },
      "id": "node/5606435020"
    },
    {
      "type": "Feature",
      "properties": {
        "@id": "node/5617463735",
        "shop": "car_repair"
      },
      "geometry": {
        "type": "Point",
        "coordinates": [
          14.8294267,
          47.2199707
        ]
      },
      "id": "node/5617463735"
    },
    {
      "type": "Feature",
      "properties": {
        "@id": "node/5617463738",
        "service": "repair",
        "shop": "car_repair"
      },
      "geometry": {
        "type": "Point",
        "coordinates": [
          14.8299926,
          47.2235794
        ]
      },
      "id": "node/5617463738"
    },
    {
      "type": "Feature",
      "properties": {
        "@id": "node/5617953393",
        "name": "Auto Peter",
        "service": "repair",
        "shop": "car_repair"
      },
      "geometry": {
        "type": "Point",
        "coordinates": [
          14.8309663,
          47.2218416
        ]
      },
      "id": "node/5617953393"
    },
    {
      "type": "Feature",
      "properties": {
        "@id": "node/5626222449",
        "addr:city": "Kindberg",
        "addr:housenumber": "3",
        "addr:postcode": "8650",
        "addr:street": "Wiener Straße",
        "name": "Autohaus Begrer",
        "shop": "car_repair"
      },
      "geometry": {
        "type": "Point",
        "coordinates": [
          15.4488779,
          47.5085242
        ]
      },
      "id": "node/5626222449"
    },
    {
      "type": "Feature",
      "properties": {
        "@id": "node/5635143783",
        "shop": "car_repair"
      },
      "geometry": {
        "type": "Point",
        "coordinates": [
          16.1820892,
          46.6852052
        ]
      },
      "id": "node/5635143783"
    },
    {
      "type": "Feature",
      "properties": {
        "@id": "node/5641513732",
        "addr:city": "Guttaring",
        "addr:country": "AT",
        "addr:housenumber": "1",
        "addr:postcode": "9334",
        "addr:street": "Christophorusweg",
        "contact:phone": "+43 4262 8175",
        "name": "KFZ Kuss",
        "opening_hours": "Mo-Fr 08:00-12:00, 13:00-17:00",
        "operator": "Ing. Herbert Kuss",
        "shop": "car_repair",
        "website": "http://www.ad-kuss.at/index.php/impressum"
      },
      "geometry": {
        "type": "Point",
        "coordinates": [
          14.5048767,
          46.8799327
        ]
      },
      "id": "node/5641513732"
    },
    {
      "type": "Feature",
      "properties": {
        "@id": "node/5658159055",
        "service": "repair",
        "shop": "car_repair"
      },
      "geometry": {
        "type": "Point",
        "coordinates": [
          15.8789523,
          46.923899
        ]
      },
      "id": "node/5658159055"
    },
    {
      "type": "Feature",
      "properties": {
        "@id": "node/5695511780",
        "addr:city": "Leoben",
        "addr:country": "AT",
        "addr:housenumber": "4",
        "addr:postcode": "8700",
        "addr:street": "Waltenbachstraße",
        "addr:suburb": "Mühltal",
        "at_bev:addr_date": "2017-10-01",
        "contact:phone": "+43 3842 276 45",
        "name": "Oswin MAYER",
        "shop": "car_repair",
        "website": "https://www.oswinmayer.at/"
      },
      "geometry": {
        "type": "Point",
        "coordinates": [
          15.1291121,
          47.3839545
        ]
      },
      "id": "node/5695511780"
    },
    {
      "type": "Feature",
      "properties": {
        "@id": "node/5723523644",
        "addr:city": "Graz",
        "addr:country": "AT",
        "addr:housenumber": "3",
        "addr:postcode": "8010",
        "addr:street": "Evangelimanngasse",
        "email": "graz2@weichberger.at",
        "name": "Reifen Weichberger",
        "opening_hours": "Mo-Th 08:00-17:00; Fr 08:00-15:00",
        "phone": "+43 316 463130",
        "shop": "car_repair",
        "website": "https://www.weichberger.at/cms/graz-evangelimanngasse"
      },
      "geometry": {
        "type": "Point",
        "coordinates": [
          15.4528161,
          47.0499504
        ]
      },
      "id": "node/5723523644"
    },
    {
      "type": "Feature",
      "properties": {
        "@id": "node/5723523661",
        "addr:city": "Graz",
        "addr:country": "AT",
        "addr:housenumber": "145",
        "addr:postcode": "8010",
        "addr:street": "Conrad-von-Hötzendorf-Straße",
        "check_date:opening_hours": "2022-02-27",
        "contact:phone": "+43 5 9101-9029",
        "name": "Forstinger",
        "opening_hours": "Mo-Fr 08:30-18:00; Sa 08:30-13:00",
        "shop": "car_repair",
        "website": "https://www.forstinger.com/"
      },
      "geometry": {
        "type": "Point",
        "coordinates": [
          15.4520326,
          47.0501633
        ]
      },
      "id": "node/5723523661"
    },
    {
      "type": "Feature",
      "properties": {
        "@id": "node/5761979723",
        "name": "Killa Performance",
        "operator": "Marcel Sowa",
        "shop": "car_repair"
      },
      "geometry": {
        "type": "Point",
        "coordinates": [
          14.5317087,
          46.7468646
        ]
      },
      "id": "node/5761979723"
    },
    {
      "type": "Feature",
      "properties": {
        "@id": "node/5822685857",
        "amenity": "bicycle_repair_station",
        "opening_hours": "24/7",
        "service:bicycle:pump": "yes"
      },
      "geometry": {
        "type": "Point",
        "coordinates": [
          14.6365282,
          47.5915849
        ]
      },
      "id": "node/5822685857"
    },
    {
      "type": "Feature",
      "properties": {
        "@id": "node/5829733668",
        "name": "KFZ Zöhrer",
        "service": "repair",
        "shop": "car_repair"
      },
      "geometry": {
        "type": "Point",
        "coordinates": [
          15.4818204,
          46.7414451
        ]
      },
      "id": "node/5829733668"
    },
    {
      "type": "Feature",
      "properties": {
        "@id": "node/5878923751",
        "addr:city": "Spielberg",
        "addr:country": "AT",
        "addr:housenumber": "6",
        "addr:postcode": "8724",
        "addr:street": "Helenengasse",
        "email": "kfz.rudorfer@aon.at",
        "fax": "+ 43 3512 82031-4",
        "name": "Rudorfer",
        "operator": "Ing. Manfred Rudorfer",
        "phone": "+43 3512 82031",
        "service": "repair",
        "shop": "car_repair",
        "website": "http://www.kfz-rudorfer.at/index.html"
      },
      "geometry": {
        "type": "Point",
        "coordinates": [
          14.8046136,
          47.220887
        ]
      },
      "id": "node/5878923751"
    },
    {
      "type": "Feature",
      "properties": {
        "@id": "node/5925864387",
        "shop": "car_repair"
      },
      "geometry": {
        "type": "Point",
        "coordinates": [
          15.5046013,
          47.3009279
        ]
      },
      "id": "node/5925864387"
    },
    {
      "type": "Feature",
      "properties": {
        "@id": "node/5934665412",
        "amenity": "bicycle_repair_station",
        "full_name": "Radstation am Bahnhof",
        "level": "0",
        "name": "Rad Station",
        "opening_hours": "Feb 18-Apr 30: Mo-Fr 08:00-17:00; May-Oct Sa,Su,PH 09:00-12:00,17:00-19:00",
        "operator": "Bicycle",
        "service:bicycle:cleaning": "yes",
        "service:bicycle:rental": "yes"
      },
      "geometry": {
        "type": "Point",
        "coordinates": [
          15.4174827,
          47.0717242
        ]
      },
      "id": "node/5934665412"
    },
    {
      "type": "Feature",
      "properties": {
        "@id": "node/5935986703",
        "addr:city": "Niederwölz",
        "addr:country": "AT",
        "addr:district": "Murau",
        "addr:housenumber": "126",
        "addr:postcode": "8831",
        "addr:street": "Glattjoch Straße",
        "at_bev:addr_date": "2020-10-01",
        "brand": "Toyota",
        "email": "toyota@sapper.co.at",
        "name": "Toyota Sapper",
        "phone": "+43 3582/2269",
        "service": "repair",
        "shop": "car_repair",
        "was:addr:place": "Niederwölz",
        "website": "http://www.sapper.co.at/index.php/niederwoelz"
      },
      "geometry": {
        "type": "Point",
        "coordinates": [
          14.3780351,
          47.1510523
        ]
      },
      "id": "node/5935986703"
    },
    {
      "type": "Feature",
      "properties": {
        "@id": "node/5969851056",
        "amenity": "bicycle_repair_station",
        "service:bicycle:diy": "yes",
        "service:bicycle:pump": "yes",
        "service:bicycle:repair": "yes"
      },
      "geometry": {
        "type": "Point",
        "coordinates": [
          15.8937442,
          46.723494
        ]
      },
      "id": "node/5969851056"
    },
    {
      "type": "Feature",
      "properties": {
        "@id": "node/6007777008",
        "addr:city": "Kammern im Liesingtal",
        "addr:housenumber": "1",
        "addr:postcode": "8773",
        "addr:street": "Kammerner Höhe",
        "name": "KFZ Schipfer",
        "shop": "car_repair"
      },
      "geometry": {
        "type": "Point",
        "coordinates": [
          14.8993887,
          47.3892499
        ]
      },
      "id": "node/6007777008"
    },
    {
      "type": "Feature",
      "properties": {
        "@id": "node/6027794841",
        "addr:city": "Weiz",
        "addr:country": "AT",
        "addr:housenumber": "32",
        "addr:postcode": "8160",
        "addr:street": "Dr.-Karl-Widdmann-Straße",
        "brand": "Opel, Suzuki, Iveco",
        "name": "Schrank",
        "shop": "car_repair"
      },
      "geometry": {
        "type": "Point",
        "coordinates": [
          15.6242993,
          47.2232506
        ]
      },
      "id": "node/6027794841"
    },
    {
      "type": "Feature",
      "properties": {
        "@id": "node/6050875790",
        "addr:city": "Gleisdorf",
        "addr:country": "AT",
        "addr:housenumber": "13",
        "addr:postcode": "8200",
        "addr:street": "Fürstenfelder Straße",
        "at_bev:addr_date": "2018-10-01",
        "brand": "alle Marken",
        "car:aircondition": "yes",
        "car:bodywork": "yes",
        "car:glass": "yes",
        "car:motor": "yes",
        "car:parts": "yes",
        "car:repair": "yes",
        "car:sales": "yes;used",
        "car:transmission": "repair",
        "car:tyres": "yes",
        "email": "kfz-tieber@gmx.at",
        "motorcycle:repair": "yes",
        "name": "KFZ Handel Tieber Michael",
        "opening_hours": "Mo-Sa 08:00-18:00",
        "operator": "Michael Tieber",
        "payment:coins": "yes",
        "payment:notes": "yes",
        "phone": "+436649995054",
        "second_hand": "yes",
        "shop": "car",
        "smoking": "outside",
        "source": "local knowledge;gps",
        "start_date": "01.07.2013",
        "website": "https://www.kfz-tieber.at/",
        "wheelchair": "yes"
      },
      "geometry": {
        "type": "Point",
        "coordinates": [
          15.719153,
          47.1029669
        ]
      },
      "id": "node/6050875790"
    },
    {
      "type": "Feature",
      "properties": {
        "@id": "node/6085773763",
        "addr:city": "Unzmarkt-Frauenburg",
        "addr:country": "AT",
        "addr:housenumber": "23",
        "addr:postcode": "8800",
        "addr:street": "Kärntnerstraße",
        "name": "Pirker & Kampl",
        "phone": "+43 664/5047518",
        "service": "repair",
        "shop": "car_repair"
      },
      "geometry": {
        "type": "Point",
        "coordinates": [
          14.4421358,
          47.1964599
        ]
      },
      "id": "node/6085773763"
    },
    {
      "type": "Feature",
      "properties": {
        "@id": "node/6095243129",
        "name": "Josef Kurzmann",
        "shop": "car_repair"
      },
      "geometry": {
        "type": "Point",
        "coordinates": [
          15.4672241,
          47.0672272
        ]
      },
      "id": "node/6095243129"
    },
    {
      "type": "Feature",
      "properties": {
        "@id": "node/6120290472",
        "addr:city": "Friedberg",
        "addr:housenumber": "204",
        "addr:postcode": "8240",
        "addr:street": "Ehrenschachen",
        "name": "Stögerer",
        "shop": "car_repair"
      },
      "geometry": {
        "type": "Point",
        "coordinates": [
          16.055068,
          47.4060793
        ]
      },
      "id": "node/6120290472"
    },
    {
      "type": "Feature",
      "properties": {
        "@id": "node/6205898811",
        "addr:city": "Graz",
        "addr:country": "AT",
        "addr:housenumber": "38",
        "addr:postcode": "8020",
        "addr:street": "Keplerstraße",
        "amenity": "bicycle_repair_station",
        "contact:email": "office@rebikel.at",
        "contact:phone": "+436765019070",
        "contact:website": "http://www.rebikel.at/",
        "name": "Rebikel",
        "opening_hours": "Tu-Fr 13:00-18:00",
        "operator": "Rebikel",
        "service:bicycle:mtb": "yes",
        "service:bicycle:parts": "yes",
        "service:bicycle:pump": "yes",
        "service:bicycle:repair": "yes",
        "service:bicycle:retail": "yes",
        "service:bicycle:second_hand": "yes",
        "service:bicycle:tools": "yes",
        "shop": "bicycle",
        "wheelchair": "no"
      },
      "geometry": {
        "type": "Point",
        "coordinates": [
          15.4275201,
          47.0756165
        ]
      },
      "id": "node/6205898811"
    },
    {
      "type": "Feature",
      "properties": {
        "@id": "node/6208434049",
        "addr:city": "Fohnsdorf",
        "addr:country": "AT",
        "addr:housenumber": "6",
        "addr:postcode": "8753",
        "addr:street": "Buchengasse",
        "email": "office@kfz-karner.at",
        "name": "KFZ Karner",
        "opening_hours": "Mo-Fr 08:00-12:00,13:00-17:00",
        "phone": "+43 676 6491071",
        "shop": "car_repair",
        "website": "www.kfz-karner.at"
      },
      "geometry": {
        "type": "Point",
        "coordinates": [
          14.693546,
          47.2017723
        ]
      },
      "id": "node/6208434049"
    },
    {
      "type": "Feature",
      "properties": {
        "@id": "node/6214587902",
        "addr:city": "Hart bei Graz",
        "addr:country": "AT",
        "addr:housenumber": "11-13",
        "addr:postcode": "8075",
        "addr:street": "Industriestraße",
        "contact:phone": "+43 664 203 54 60",
        "name": "Mittermüller",
        "opening_hours": "Mo-Fr 07:00-12:00, 12:45-16:30; Sa-Su off",
        "shop": "car_repair",
        "website": "http://www.mittermüller.cc"
      },
      "geometry": {
        "type": "Point",
        "coordinates": [
          15.509719,
          47.0409306
        ]
      },
      "id": "node/6214587902"
    },
    {
      "type": "Feature",
      "properties": {
        "@id": "node/6276628161",
        "addr:city": "Knittelfeld",
        "addr:country": "AT",
        "addr:housenumber": "159",
        "addr:postcode": "8720",
        "addr:street": "Kameokastraße",
        "building": "yes",
        "contact:facebook": "https://de-de.facebook.com/jk.kfztechnik/",
        "name": "Jud&Kleissner. KFZ Technik",
        "phone": "+43 660 8911826",
        "service": "repair",
        "shop": "car_repair"
      },
      "geometry": {
        "type": "Point",
        "coordinates": [
          14.8066494,
          47.209575
        ]
      },
      "id": "node/6276628161"
    },
    {
      "type": "Feature",
      "properties": {
        "@id": "node/6292111836",
        "addr:city": "Neunkirchen",
        "addr:country": "AT",
        "addr:housenumber": "34",
        "addr:postcode": "2620",
        "addr:street": "Wenischgasse",
        "name": "KFZ Ilhan POLAT",
        "shop": "car_repair"
      },
      "geometry": {
        "type": "Point",
        "coordinates": [
          16.0771052,
          47.7299013
        ]
      },
      "id": "node/6292111836"
    },
    {
      "type": "Feature",
      "properties": {
        "@id": "node/6298090940",
        "addr:city": "Ternitz",
        "addr:housenumber": "2",
        "addr:postcode": "2630",
        "addr:street": "Industriestraße II",
        "name": "Fahrzeugtechnik Koglbauer GmbH",
        "shop": "car_repair"
      },
      "geometry": {
        "type": "Point",
        "coordinates": [
          16.0627718,
          47.7267888
        ]
      },
      "id": "node/6298090940"
    },
    {
      "type": "Feature",
      "properties": {
        "@id": "node/6365076381",
        "addr:city": "Knittefeld",
        "addr:country": "AT",
        "addr:housenumber": "26",
        "addr:postcode": "8720",
        "addr:street": "Niederfeldgasse",
        "email": "info@p-performance.at",
        "name": "p-performance",
        "phone": "+43 3512-71880",
        "service": "parts",
        "shop": "car_repair",
        "website": "https://www.p-performance.at/kontakt/impressum"
      },
      "geometry": {
        "type": "Point",
        "coordinates": [
          14.837299,
          47.2100651
        ]
      },
      "id": "node/6365076381"
    },
    {
      "type": "Feature",
      "properties": {
        "@id": "node/6544817180",
        "name": "Karrosseriewerkstätte Jalen",
        "shop": "car_repair"
      },
      "geometry": {
        "type": "Point",
        "coordinates": [
          14.095896,
          46.7241945
        ]
      },
      "id": "node/6544817180"
    },
    {
      "type": "Feature",
      "properties": {
        "@id": "node/6636841743",
        "addr:city": "Niklasdorf",
        "addr:country": "AT",
        "addr:housenumber": "3",
        "addr:postcode": "8712",
        "addr:street": "Waltenbach",
        "name": "Rudi's Kfz-Technik",
        "shop": "car_repair"
      },
      "geometry": {
        "type": "Point",
        "coordinates": [
          15.1446143,
          47.3902439
        ]
      },
      "id": "node/6636841743"
    },
    {
      "type": "Feature",
      "properties": {
        "@id": "node/6636879794",
        "addr:city": "Neumarkt in der Steiermark",
        "addr:country": "AT",
        "addr:housenumber": "24",
        "addr:postcode": "8820",
        "addr:street": "Kärntner Straße",
        "at_bev:addr_date": "2018-10-01",
        "name": "Mazda Fellner",
        "shop": "car_repair"
      },
      "geometry": {
        "type": "Point",
        "coordinates": [
          14.4304137,
          47.0681945
        ]
      },
      "id": "node/6636879794"
    },
    {
      "type": "Feature",
      "properties": {
        "@id": "node/6655062091",
        "addr:city": "Wies",
        "addr:housenumber": "1/3",
        "addr:postcode": "8551",
        "addr:street": "Altenmarkter Straße",
        "brand": "Aprilia;Sym",
        "motorcycle:parts": "yes",
        "motorcycle:repair": "yes",
        "motorcycle:sales": "yes",
        "name": "TGS Motorrad R. Paullitsch",
        "shop": "motorcycle_repair",
        "website": "https://www.tgs-motorrad.at/"
      },
      "geometry": {
        "type": "Point",
        "coordinates": [
          15.2679769,
          46.7169404
        ]
      },
      "id": "node/6655062091"
    },
    {
      "type": "Feature",
      "properties": {
        "@id": "node/6695372885",
        "addr:postcode": "8792",
        "name": "KFZ Ortner",
        "opening_hours": "Mo-Fr 07:30-12:00, 13:00-16:30",
        "phone": "0384222733",
        "shop": "car_repair"
      },
      "geometry": {
        "type": "Point",
        "coordinates": [
          15.0337777,
          47.39717
        ]
      },
      "id": "node/6695372885"
    },
    {
      "type": "Feature",
      "properties": {
        "@id": "node/6705102212",
        "service": "repair;parts",
        "shop": "car_repair"
      },
      "geometry": {
        "type": "Point",
        "coordinates": [
          15.956562,
          46.9561007
        ]
      },
      "id": "node/6705102212"
    },
    {
      "type": "Feature",
      "properties": {
        "@id": "node/6710968655",
        "amenity": "bicycle_repair_station",
        "covered": "yes",
        "fee": "no",
        "opening_hours": "24/7",
        "service:bicycle:pump": "yes",
        "service:bicycle:stand": "yes",
        "service:bicycle:tools": "yes"
      },
      "geometry": {
        "type": "Point",
        "coordinates": [
          15.9875567,
          46.6875718
        ]
      },
      "id": "node/6710968655"
    },
    {
      "type": "Feature",
      "properties": {
        "@id": "node/6762279133",
        "addr:city": "Obdach",
        "addr:country": "AT",
        "addr:housenumber": "24",
        "addr:place": "Kleinprethal",
        "addr:postcode": "8742",
        "email": "office@autopirker.at",
        "name": "Pirker Franz KFZ-Handels GmbH",
        "opening_hours": "Mo-Fr 08:00-12:00,13:30-17:00",
        "phone": "+43 664 210 72 67",
        "service": "repair",
        "shop": "car_repair",
        "website": "https://pirker-franz-kfz-handels-gmbh.motornetzwerk.at/kontakt/"
      },
      "geometry": {
        "type": "Point",
        "coordinates": [
          14.7195527,
          47.0439292
        ]
      },
      "id": "node/6762279133"
    },
    {
      "type": "Feature",
      "properties": {
        "@id": "node/6791440942",
        "name": "Wiesenhofer KFZ",
        "shop": "car_repair"
      },
      "geometry": {
        "type": "Point",
        "coordinates": [
          15.6045842,
          47.2449898
        ]
      },
      "id": "node/6791440942"
    },
    {
      "type": "Feature",
      "properties": {
        "@id": "node/6937423247",
        "addr:city": "Kainbach bei Graz",
        "addr:country": "AT",
        "addr:housenumber": "377",
        "addr:postcode": "8047",
        "addr:street": "Ragnitzstraße",
        "brand": "Alfa Romeo",
        "contact:email": "office@kfz-voit.at",
        "contact:mobile": "+43 676 4967193",
        "contact:phone": "+43 316 301341",
        "name": "KFZ Voit",
        "opening_hours": "Mo-Fr 09:00-12:00, 13:00-19:00; Sa 09:00-12:00",
        "shop": "car_repair",
        "source": "GeoImage.at High-Res",
        "website": "https://www.kfz-voit.at/"
      },
      "geometry": {
        "type": "Point",
        "coordinates": [
          15.5291828,
          47.0878065
        ]
      },
      "id": "node/6937423247"
    },
    {
      "type": "Feature",
      "properties": {
        "@id": "node/6937613133",
        "name": "Schlager Walter",
        "shop": "car_repair"
      },
      "geometry": {
        "type": "Point",
        "coordinates": [
          15.7870287,
          47.1730366
        ]
      },
      "id": "node/6937613133"
    },
    {
      "type": "Feature",
      "properties": {
        "@id": "node/6967788173",
        "name": "KFZ Hochegger",
        "shop": "car_repair"
      },
      "geometry": {
        "type": "Point",
        "coordinates": [
          14.8014318,
          46.9551545
        ]
      },
      "id": "node/6967788173"
    },
    {
      "type": "Feature",
      "properties": {
        "@id": "node/6969867272",
        "email": "office@kfz-leitold.at",
        "name": "KFZ Leitold",
        "opening_hours": "Mo-Th 07:30-12:00,13:30-17:00; Fr 07:30-14:00",
        "phone": "+43 3512 72152",
        "shop": "car_repair",
        "website": "https://www.kfz-leitold.at/"
      },
      "geometry": {
        "type": "Point",
        "coordinates": [
          14.7987878,
          47.2079005
        ]
      },
      "id": "node/6969867272"
    },
    {
      "type": "Feature",
      "properties": {
        "@id": "node/7029176291",
        "addr:city": "Graz",
        "addr:housenumber": "66",
        "addr:postcode": "8055",
        "addr:street": "Gradnerstraße",
        "name": "KLEDO Reisemobile GmbH",
        "opening_hours": "Mo-Fr 08:00-17:00; Sa 09:00-12:00",
        "operator": "KLEDO Reisemobile GmbH",
        "service:vehicle:inspection": "yes",
        "service:vehicle:used_car_sales": "yes",
        "shop": "car_repair",
        "source": "https://www.kledo.at/fahrzeuge.php",
        "vehicle:type": "caravan;camper_van"
      },
      "geometry": {
        "type": "Point",
        "coordinates": [
          15.4187978,
          47.0213912
        ]
      },
      "id": "node/7029176291"
    },
    {
      "type": "Feature",
      "properties": {
        "@id": "node/7040232305",
        "addr:city": "Scheifling",
        "addr:country": "AT",
        "addr:housenumber": "5",
        "addr:postcode": "8811",
        "addr:street": "Kärntner Straße",
        "contact:phone": "+43 3582 23 10",
        "name": "Auto Cinibulk KG",
        "opening_hours": "Mo-Th 07:30-12:00, 13:00-16:30; Fr 07:30-12:00, 13:00-15:00",
        "shop": "car_repair",
        "website": "https://cinibulk.go1a.at/kontakt/"
      },
      "geometry": {
        "type": "Point",
        "coordinates": [
          14.4127702,
          47.1513851
        ]
      },
      "id": "node/7040232305"
    },
    {
      "type": "Feature",
      "properties": {
        "@id": "node/7096626850",
        "addr:city": "Graz",
        "addr:housenumber": "42",
        "addr:postcode": "8041",
        "addr:street": "Jägerweg",
        "name": "KFZ Technik Painer",
        "opening_hours": "Mo-Th 08:00-12:00, 13:00-17:00; Fr 08:00-12:00, 13:00-15:00",
        "operator": "Kurt Painer",
        "phone": "+43 316 424480",
        "shop": "car_repair",
        "source": "https://www.herold.at"
      },
      "geometry": {
        "type": "Point",
        "coordinates": [
          15.4745436,
          47.0291385
        ]
      },
      "id": "node/7096626850"
    },
    {
      "type": "Feature",
      "properties": {
        "@id": "node/7096626851",
        "addr:city": "Graz",
        "addr:housenumber": "42",
        "addr:postcode": "8041",
        "addr:street": "Jägerweg",
        "name": "Kurt Linditsch GmbH",
        "opening_hours": "Mo-Th 07:00-11:00, 11:45-16:00; Fr 07:00-12:30",
        "operator": "Kurt Linditsch",
        "phone": "+43 316 402727",
        "shop": "car_repair",
        "source": "https://www.herold.at;https://www.firmenabc.at/kurt-linditsch-gmbh_BEJb"
      },
      "geometry": {
        "type": "Point",
        "coordinates": [
          15.4742566,
          47.029027
        ]
      },
      "id": "node/7096626851"
    },
    {
      "type": "Feature",
      "properties": {
        "@id": "node/7176853411",
        "addr:city": "St. Stefan",
        "addr:housenumber": "60",
        "addr:postcode": "9431",
        "addr:street": "Klagenfurter Straße",
        "email": "welwich-kfz@aon.at",
        "fax": "+43 4352 81627",
        "name": "Welwich GmbH",
        "phone": "+43 4352 81230",
        "shop": "car_repair"
      },
      "geometry": {
        "type": "Point",
        "coordinates": [
          14.8322264,
          46.8114486
        ]
      },
      "id": "node/7176853411"
    },
    {
      "type": "Feature",
      "properties": {
        "@id": "node/7325458248",
        "addr:city": "Thannhausen",
        "addr:country": "AT",
        "addr:housenumber": "12",
        "addr:postcode": "8160",
        "addr:street": "Urtl-Höhe",
        "name": "Zorn",
        "operator": "Zorn Hein",
        "shop": "car_repair"
      },
      "geometry": {
        "type": "Point",
        "coordinates": [
          15.6549476,
          47.2312523
        ]
      },
      "id": "node/7325458248"
    },
    {
      "type": "Feature",
      "properties": {
        "@id": "node/7352603964",
        "addr:city": "Graz",
        "addr:housenumber": "44",
        "addr:postcode": "8010",
        "addr:street": "Petersgasse",
        "name": "KFZ Kalcher",
        "opening_hours": "Mo-Fr 08:00-12:00, 13:00-17:00",
        "phone": "+43 316 82 32 62",
        "shop": "car_repair",
        "source": "http://kalcher-kfz.at",
        "website": "http://kalcher-kfz.at"
      },
      "geometry": {
        "type": "Point",
        "coordinates": [
          15.4565018,
          47.0629835
        ]
      },
      "id": "node/7352603964"
    },
    {
      "type": "Feature",
      "properties": {
        "@id": "node/7366673616",
        "amenity": "bicycle_repair_station",
        "fee": "no",
        "opening_hours": "24/7",
        "service:bicycle:pump": "yes",
        "service:bicycle:stand": "yes",
        "service:bicycle:tools": "yes"
      },
      "geometry": {
        "type": "Point",
        "coordinates": [
          16.108958,
          47.7178093
        ]
      },
      "id": "node/7366673616"
    },
    {
      "type": "Feature",
      "properties": {
        "@id": "node/7376903905",
        "addr:city": "Kainbach bei Graz",
        "addr:housenumber": "4",
        "addr:postcode": "8047",
        "addr:street": "Kapellenweg",
        "name": "KFZ-Weiss",
        "opening_hours": "Mo-Th 09:00-16:00; Fr 09:00-12:00",
        "phone": "+43 664 911 2 999",
        "service:vehicle:car_repair": "yes",
        "shop": "car_repair",
        "website": "https://www.kfz-weiss.at"
      },
      "geometry": {
        "type": "Point",
        "coordinates": [
          15.5284687,
          47.0753937
        ]
      },
      "id": "node/7376903905"
    },
    {
      "type": "Feature",
      "properties": {
        "@id": "node/7385508810",
        "name": "KFZ Schalk",
        "shop": "car_repair"
      },
      "geometry": {
        "type": "Point",
        "coordinates": [
          16.0239863,
          47.1388052
        ]
      },
      "id": "node/7385508810"
    },
    {
      "type": "Feature",
      "properties": {
        "@id": "node/7724256367",
        "addr:city": "Voitsberg",
        "addr:country": "AT",
        "addr:housenumber": "130",
        "addr:postcode": "8570",
        "addr:street": "Grazer Vorstadt",
        "brand": "Opel",
        "brand:wikidata": "Q40966",
        "brand:wikipedia": "en:Opel",
        "contact:phone": "+43 3142 215 550",
        "name": "Opel Fior Voitsberg",
        "opening_hours": "Mo-Th 08:00-17:00; Fr 08:00-15:30",
        "shop": "car_repair",
        "website": "https://www.opelfior-voitsberg.at/werkstatt-und-zubehoer/opel-werkstatt/"
      },
      "geometry": {
        "type": "Point",
        "coordinates": [
          15.168457,
          47.0376545
        ]
      },
      "id": "node/7724256367"
    },
    {
      "type": "Feature",
      "properties": {
        "@id": "node/7729021842",
        "amenity": "bicycle_repair_station",
        "fee": "no",
        "opening_hours": "24/7",
        "service:bicycle:pump": "yes",
        "service:bicycle:stand": "yes",
        "service:bicycle:tools": "yes"
      },
      "geometry": {
        "type": "Point",
        "coordinates": [
          15.9981969,
          47.6904877
        ]
      },
      "id": "node/7729021842"
    },
    {
      "type": "Feature",
      "properties": {
        "@id": "node/7737833646",
        "name": "Forstinger",
        "shop": "car_repair"
      },
      "geometry": {
        "type": "Point",
        "coordinates": [
          16.0680608,
          47.7156748
        ]
      },
      "id": "node/7737833646"
    },
    {
      "type": "Feature",
      "properties": {
        "@id": "node/7760596535",
        "addr:city": "Fernitz",
        "addr:housenumber": "1",
        "addr:postcode": "8072",
        "addr:street": "Peter Rosegger Straße",
        "amenity": "bicycle_repair_station",
        "compressed_air": "yes",
        "contact:phone": "+43 (0)664 8810 5510",
        "contact:website": "http://www.fahrradservice-fernitz.at/",
        "name": "Fahrradladen Fernitz",
        "opening_hours": "Mo,Sa 09:00-13:00; Tu-Fr 09:00-18:00; Su off",
        "operator": "Karl Maier",
        "service:bicycle:Bicycle_Sales_and_Service": "yes",
        "service:bicycle:charging": "yes",
        "service:bicycle:repair": "yes",
        "service:bicycle:tools": "yes",
        "shop": "bicycle"
      },
      "geometry": {
        "type": "Point",
        "coordinates": [
          15.4974076,
          46.9723384
        ]
      },
      "id": "node/7760596535"
    },
    {
      "type": "Feature",
      "properties": {
        "@id": "node/7827679651",
        "amenity": "bicycle_repair_station",
        "operator": "ÖAMTC",
        "service:bicycle:pump": "yes",
        "service:bicycle:stand": "yes",
        "service:bicycle:tools": "yes"
      },
      "geometry": {
        "type": "Point",
        "coordinates": [
          15.4349984,
          47.0569253
        ]
      },
      "id": "node/7827679651"
    },
    {
      "type": "Feature",
      "properties": {
        "@id": "node/8085138135",
        "amenity": "bicycle_repair_station",
        "opening_hours": "24/7",
        "service:bicycle:pump": "yes",
        "service:bicycle:repair": "yes"
      },
      "geometry": {
        "type": "Point",
        "coordinates": [
          15.9680353,
          47.2785081
        ]
      },
      "id": "node/8085138135"
    },
    {
      "type": "Feature",
      "properties": {
        "@id": "node/8117973294",
        "amenity": "bicycle_repair_station",
        "fee": "no",
        "opening_hours": "24/7",
        "service:bicycle:pump": "yes",
        "service:bicycle:stand": "yes",
        "service:bicycle:tools": "yes"
      },
      "geometry": {
        "type": "Point",
        "coordinates": [
          15.9468022,
          47.267996
        ]
      },
      "id": "node/8117973294"
    },
    {
      "type": "Feature",
      "properties": {
        "@id": "node/8117973295",
        "amenity": "bicycle_repair_station",
        "opening_hours": "24/7",
        "service:bicycle:pump": "yes",
        "service:bicycle:repair": "yes"
      },
      "geometry": {
        "type": "Point",
        "coordinates": [
          15.8755467,
          47.349014
        ]
      },
      "id": "node/8117973295"
    },
    {
      "type": "Feature",
      "properties": {
        "@id": "node/8180032387",
        "amenity": "bicycle_repair_station",
        "fee": "no"
      },
      "geometry": {
        "type": "Point",
        "coordinates": [
          14.8999681,
          46.6996462
        ]
      },
      "id": "node/8180032387"
    },
    {
      "type": "Feature",
      "properties": {
        "@id": "node/8205656798",
        "addr:city": "Voitsberg",
        "addr:country": "AT",
        "addr:housenumber": "111",
        "addr:postcode": "8570",
        "addr:street": "Grazer Vorstadt",
        "contact:phone": "+43 3142 220 20",
        "name": "Krammer Automotive",
        "opening_hours": "Mo-Fr 08:00-13:00, 14:00-18:00; Sa 08:00-12:00",
        "shop": "car_repair"
      },
      "geometry": {
        "type": "Point",
        "coordinates": [
          15.177841,
          47.0361913
        ]
      },
      "id": "node/8205656798"
    },
    {
      "type": "Feature",
      "properties": {
        "@id": "node/8235449661",
        "name": "KFZ Mayer",
        "shop": "car_repair"
      },
      "geometry": {
        "type": "Point",
        "coordinates": [
          14.1520013,
          47.5524915
        ]
      },
      "id": "node/8235449661"
    },
    {
      "type": "Feature",
      "properties": {
        "@id": "node/8235501482",
        "name": "KFZ Mayer",
        "shop": "car_repair"
      },
      "geometry": {
        "type": "Point",
        "coordinates": [
          14.1519781,
          47.5524782
        ]
      },
      "id": "node/8235501482"
    },
    {
      "type": "Feature",
      "properties": {
        "@id": "node/8267986185",
        "addr:city": "Sankt Lambrecht",
        "addr:housenumber": "2",
        "addr:postcode": "8813",
        "addr:street": "Leitnersiedlung",
        "name": "Gerold",
        "phone": "03585 24674",
        "shop": "car_repair",
        "website": "http://www.kfz-gerold.at/"
      },
      "geometry": {
        "type": "Point",
        "coordinates": [
          14.3167368,
          47.0834626
        ]
      },
      "id": "node/8267986185"
    },
    {
      "type": "Feature",
      "properties": {
        "@id": "node/8278363195",
        "name": "Schlagis Werkstatt",
        "shop": "car_repair"
      },
      "geometry": {
        "type": "Point",
        "coordinates": [
          15.8472747,
          47.3010864
        ]
      },
      "id": "node/8278363195"
    },
    {
      "type": "Feature",
      "properties": {
        "@id": "node/8628654102",
        "amenity": "bicycle_repair_station"
      },
      "geometry": {
        "type": "Point",
        "coordinates": [
          14.3144376,
          46.6505758
        ]
      },
      "id": "node/8628654102"
    },
    {
      "type": "Feature",
      "properties": {
        "@id": "node/8653687919",
        "addr:city": "Graz",
        "addr:country": "AT",
        "addr:housenumber": "216",
        "addr:postcode": "8055",
        "addr:street": "Puchstraße",
        "description": "Autolackierer",
        "email": "office@prem-kfz.at",
        "name": "Prem Kurt Karosseriebautechnik Lackierer",
        "opening_hours": "Mo-Th 08:00-17:00; Fr 08:00-15:00",
        "phone": "+43 664 73 04 51 77",
        "shop": "car_repair",
        "website": "http://www.prem-kfz.at"
      },
      "geometry": {
        "type": "Point",
        "coordinates": [
          15.4371714,
          47.034152
        ]
      },
      "id": "node/8653687919"
    },
    {
      "type": "Feature",
      "properties": {
        "@id": "node/8672527334",
        "name": "Fastbox",
        "opening_hours": "Mo-Fr 08:00-18:00; Sa 08:00-12:00",
        "shop": "car_repair"
      },
      "geometry": {
        "type": "Point",
        "coordinates": [
          14.2995796,
          46.63311
        ]
      },
      "id": "node/8672527334"
    },
    {
      "type": "Feature",
      "properties": {
        "@id": "node/8686335535",
        "addr:city": "Gloggnitz",
        "addr:housenumber": "4",
        "addr:postcode": "2640",
        "addr:street": "Hofbauerstraße",
        "name": "Lagerhaus Gloggnitz",
        "shop": "car_repair"
      },
      "geometry": {
        "type": "Point",
        "coordinates": [
          15.950768,
          47.6767785
        ]
      },
      "id": "node/8686335535"
    },
    {
      "type": "Feature",
      "properties": {
        "@id": "node/8701369575",
        "email": "husabergwinkler@aon.at",
        "mobile": "+43 664 5388816",
        "name": "Husaberg Winkler",
        "opening_hours": "Mo-Fr 09:00-18:00",
        "operator": "Kurt Winkler",
        "parts": "yes",
        "repair": "yes",
        "shop": "motorcycle",
        "website": "https://www.husaberg-winkler.at"
      },
      "geometry": {
        "type": "Point",
        "coordinates": [
          14.5098227,
          47.2111237
        ]
      },
      "id": "node/8701369575"
    },
    {
      "type": "Feature",
      "properties": {
        "@id": "node/8822583699",
        "amenity": "bicycle_repair_station",
        "description": "Airpump and Tools",
        "service:bicycle:pump": "yes",
        "service:bicycle:tools": "yes"
      },
      "geometry": {
        "type": "Point",
        "coordinates": [
          14.6266923,
          46.6490759
        ]
      },
      "id": "node/8822583699"
    },
    {
      "type": "Feature",
      "properties": {
        "@id": "node/8844253002",
        "amenity": "bicycle_repair_station",
        "brand": "Ziegler",
        "fee": "no",
        "opening_hours": "24/7",
        "operator": "Gemeinde Lang",
        "service:bicycle:pump": "yes",
        "service:bicycle:repair": "yes",
        "service:bicycle:screwdriver": "yes",
        "service:bicycle:tools": "yes"
      },
      "geometry": {
        "type": "Point",
        "coordinates": [
          15.5025368,
          46.8387135
        ]
      },
      "id": "node/8844253002"
    },
    {
      "type": "Feature",
      "properties": {
        "@id": "node/8848294628",
        "addr:city": "Gabersdorf",
        "addr:housenumber": "118",
        "addr:postcode": "8424",
        "addr:street": "Landscha",
        "email": "office@kfz-held.at",
        "name": "KFZ-Technik Held OG",
        "phone": "0664 88188442",
        "shop": "car_repair",
        "website": "https://www.facebook.com/kfztechnikheld/about/?ref=page_internal"
      },
      "geometry": {
        "type": "Point",
        "coordinates": [
          15.5899751,
          46.7541717
        ]
      },
      "id": "node/8848294628"
    },
    {
      "type": "Feature",
      "properties": {
        "@id": "node/8848294645",
        "addr:city": "Obervogau",
        "addr:housenumber": "7",
        "addr:postcode": "8472",
        "addr:street": "Gewerbestraße",
        "email": "fahrzeugreparaturwaltl@gmail.com",
        "name": "Fahrzeugreparatur Waltl",
        "phone": "0677 61813152",
        "shop": "car_repair",
        "website": "https://www.facebook.com/Fahrzeugreparatur-Waltl-1823113081334035/"
      },
      "geometry": {
        "type": "Point",
        "coordinates": [
          15.5879247,
          46.7532193
        ]
      },
      "id": "node/8848294645"
    },
    {
      "type": "Feature",
      "properties": {
        "@id": "node/8895611893",
        "amenity": "bicycle_repair_station",
        "operator": "ÖAMTC",
        "service:bicycle:pump": "yes",
        "service:bicycle:stand": "yes",
        "service:bicycle:tools": "yes"
      },
      "geometry": {
        "type": "Point",
        "coordinates": [
          15.5360053,
          46.8579368
        ]
      },
      "id": "node/8895611893"
    },
    {
      "type": "Feature",
      "properties": {
        "@id": "node/8911317565",
        "amenity": "bicycle_repair_station"
      },
      "geometry": {
        "type": "Point",
        "coordinates": [
          14.2869646,
          46.6463709
        ]
      },
      "id": "node/8911317565"
    },
    {
      "type": "Feature",
      "properties": {
        "@id": "node/8995094898",
        "name": "Karosseriefachwerkstätte Autospenglerei u. -lackiererei Christian Hödl",
        "shop": "car_repair"
      },
      "geometry": {
        "type": "Point",
        "coordinates": [
          15.835813,
          46.9859175
        ]
      },
      "id": "node/8995094898"
    },
    {
      "type": "Feature",
      "properties": {
        "@id": "node/9025555456",
        "amenity": "bicycle_repair_station",
        "opening_hours": "24/7"
      },
      "geometry": {
        "type": "Point",
        "coordinates": [
          15.7718943,
          46.7046525
        ]
      },
      "id": "node/9025555456"
    },
    {
      "type": "Feature",
      "properties": {
        "@id": "node/9089081235",
        "addr:city": "Metnitz",
        "addr:housenumber": "1a",
        "addr:postcode": "9363",
        "addr:street": "Oberhof-Schattseite",
        "email": "kfz.wolfger@aon.at",
        "level": "0",
        "name": "KFZ-Werkstätte Markus Wolfger",
        "opening_hours": "Mo-Th 07:45-12:00, 13:00-17:00; Fr 07:45-12:00, 13:00-15:30",
        "operator": "Markus Wolfger",
        "phone": "+4242678423",
        "shop": "car_repair",
        "website": "https://www.kfz-werkstaette-wolfger.at/"
      },
      "geometry": {
        "type": "Point",
        "coordinates": [
          14.146632,
          46.9650284
        ]
      },
      "id": "node/9089081235"
    },
    {
      "type": "Feature",
      "properties": {
        "@id": "node/9139318567",
        "addr:city": "Neumarkt in der Steiermark",
        "addr:country": "AT",
        "addr:housenumber": "11",
        "addr:postcode": "8820",
        "addr:street": "Schloßleiten",
        "brand": "Škoda",
        "email": "gerhard.lieskonig@lieskonig.at",
        "name": "Lieskonig",
        "phone": "+43-3584-23100;+43-664-4181113",
        "shop": "car_repair",
        "website": "https://www.lieskonig.at/"
      },
      "geometry": {
        "type": "Point",
        "coordinates": [
          14.4252084,
          47.0746312
        ]
      },
      "id": "node/9139318567"
    },
    {
      "type": "Feature",
      "properties": {
        "@id": "node/9183608810",
        "amenity": "bicycle_repair_station",
        "image": "https://kartaview.org/details/3878001/1",
        "service:bicycle:pump": "yes",
        "service:bicycle:tools": "yes"
      },
      "geometry": {
        "type": "Point",
        "coordinates": [
          15.4479924,
          46.9842598
        ]
      },
      "id": "node/9183608810"
    },
    {
      "type": "Feature",
      "properties": {
        "@id": "node/9217826738",
        "addr:city": "Enzenreith",
        "addr:housenumber": "76",
        "addr:postcode": "2640",
        "addr:street": "Triester Bundesstraße",
        "addr:suburb": "Wörth",
        "shop": "car_repair"
      },
      "geometry": {
        "type": "Point",
        "coordinates": [
          15.9601753,
          47.673055
        ]
      },
      "id": "node/9217826738"
    },
    {
      "type": "Feature",
      "properties": {
        "@id": "node/9247881664",
        "addr:city": "Gleinstätten",
        "addr:country": "AT",
        "addr:housenumber": "80",
        "addr:place": "Haslach",
        "addr:postcode": "8443",
        "at_bev:addr_date": "2018-10-01",
        "email": "office@auto-poelzl.at",
        "name": "Auto Technik Pölzl GmbH",
        "opening_hours": "Mo-Th 08:00-12:00, 13:00-17:00; Fr 08:00-12:00, 13:00-15:30; PH off",
        "payment:cash": "yes",
        "payment:maestro": "yes",
        "phone": "+43 3457 26 978",
        "service:vehicle:batteries": "yes",
        "service:vehicle:brakes": "yes",
        "service:vehicle:car_parts": "yes",
        "service:vehicle:car_repair": "yes",
        "service:vehicle:diagnostics": "yes",
        "service:vehicle:oil_change": "yes",
        "service:vehicle:painting": "yes",
        "service:vehicle:trailers": "yes",
        "service:vehicle:tyres": "yes",
        "service:vehicle:used_car_sales": "yes",
        "shop": "car_repair",
        "source": "GeoImage.at MaxRes",
        "website": "https://www.auto-poelzl.at"
      },
      "geometry": {
        "type": "Point",
        "coordinates": [
          15.3490049,
          46.7487517
        ]
      },
      "id": "node/9247881664"
    },
    {
      "type": "Feature",
      "properties": {
        "@id": "node/9248788597",
        "addr:city": "Ehrenhausen an der Weinstraße",
        "addr:housenumber": "281",
        "addr:postcode": "8461",
        "addr:street": "Gamlitzer Straße",
        "name": "Diabolic Bikes e.U.",
        "phone": "+43 664 1366086",
        "shop": "motorcycle_repair",
        "website": "http://www.diabolic-bikes.at/"
      },
      "geometry": {
        "type": "Point",
        "coordinates": [
          15.5839654,
          46.7191641
        ]
      },
      "id": "node/9248788597"
    },
    {
      "type": "Feature",
      "properties": {
        "@id": "node/9248788610",
        "addr:city": "Ehrenhausen an der Weinstraße",
        "addr:housenumber": "283",
        "addr:postcode": "8461",
        "addr:street": "Gamlitzer Straße",
        "name": "Neubauer Ges.m.b.H.",
        "phone": "+43 664 2065380",
        "shop": "car_repair"
      },
      "geometry": {
        "type": "Point",
        "coordinates": [
          15.5838313,
          46.7189348
        ]
      },
      "id": "node/9248788610"
    },
    {
      "type": "Feature",
      "properties": {
        "@id": "node/9248788616",
        "addr:city": "Ehrenhausen an der Weinstraße",
        "addr:housenumber": "281",
        "addr:postcode": "8461",
        "addr:street": "Gamlitzer Straße",
        "name": "KFZ-Technik Kneser",
        "phone": "+43 664 44310 85",
        "shop": "car_repair",
        "website": "https://www.kfz-kneser.at/"
      },
      "geometry": {
        "type": "Point",
        "coordinates": [
          15.5842218,
          46.7191396
        ]
      },
      "id": "node/9248788616"
    },
    {
      "type": "Feature",
      "properties": {
        "@id": "node/9419482433",
        "amenity": "bicycle_repair_station",
        "fee": "no",
        "image": "https://kartaview.org/details/4196825/5",
        "opening_hours": "24/7",
        "service:bicycle:pump": "yes",
        "service:bicycle:stand": "yes",
        "service:bicycle:tools": "yes"
      },
      "geometry": {
        "type": "Point",
        "coordinates": [
          16.0986165,
          47.1432497
        ]
      },
      "id": "node/9419482433"
    },
    {
      "type": "Feature",
      "properties": {
        "@id": "node/9428312616",
        "brand": "Toyota",
        "name": "Herbert Mautner",
        "shop": "car_repair"
      },
      "geometry": {
        "type": "Point",
        "coordinates": [
          16.1926233,
          47.5208412
        ]
      },
      "id": "node/9428312616"
    },
    {
      "type": "Feature",
      "properties": {
        "@id": "node/9428405036",
        "brand": "Toyota",
        "name": "Alois Handler Ges.m.b.H.",
        "service": "dealer;repair",
        "shop": "car"
      },
      "geometry": {
        "type": "Point",
        "coordinates": [
          16.0076414,
          47.7223167
        ]
      },
      "id": "node/9428405036"
    },
    {
      "type": "Feature",
      "properties": {
        "@id": "node/9432809969",
        "brand": "Toyota",
        "brand:wikidata": "Q53268",
        "name": "Wolfgang Denzel Auto AG",
        "service": "dealer;repair",
        "shop": "car"
      },
      "geometry": {
        "type": "Point",
        "coordinates": [
          14.3131763,
          46.6540165
        ]
      },
      "id": "node/9432809969"
    },
    {
      "type": "Feature",
      "properties": {
        "@id": "node/9432917945",
        "brand": "Toyota",
        "brand:wikidata": "Q53268",
        "brand:wikipedia": "en:Toyota",
        "name": "Autohaus Kumpusch",
        "service:vehicle:car_repair": "yes",
        "shop": "car_repair",
        "website": "https://www.toyota.at/dealer/Gratwein/8112/Autohaus%20Kumpusch"
      },
      "geometry": {
        "type": "Point",
        "coordinates": [
          15.3331647,
          47.1415628
        ]
      },
      "id": "node/9432917945"
    },
    {
      "type": "Feature",
      "properties": {
        "@id": "node/9433064798",
        "brand": "Toyota",
        "name": "Franz Wölfl GesmbH & Co KG",
        "shop": "car_repair",
        "website": "https://www.toyota.at/dealer/Graz/8020/Franz%20W%C3%B6lfl%20Ges.m.b.H.%20&%20Co.%20KG"
      },
      "geometry": {
        "type": "Point",
        "coordinates": [
          15.4203873,
          47.0649918
        ]
      },
      "id": "node/9433064798"
    },
    {
      "type": "Feature",
      "properties": {
        "@id": "node/9433084598",
        "brand": "Lexus",
        "name": "Lexus Service Graz",
        "shop": "car_repair",
        "website": "https://www.lexus.at/forms/find-a-retailer"
      },
      "geometry": {
        "type": "Point",
        "coordinates": [
          15.4578076,
          47.0430679
        ]
      },
      "id": "node/9433084598"
    },
    {
      "type": "Feature",
      "properties": {
        "@id": "node/9433234223",
        "brand": "Toyota",
        "name": "Autohaus Knoll",
        "service": "dealer;repair",
        "shop": "car"
      },
      "geometry": {
        "type": "Point",
        "coordinates": [
          14.7004795,
          47.0633866
        ]
      },
      "id": "node/9433234223"
    },
    {
      "type": "Feature",
      "properties": {
        "@id": "node/9433363412",
        "brand": "Toyota",
        "brand:wikidata": "Q53268",
        "brand:wikipedia": "en:Toyota",
        "name": "Autohaus Prem GmbH",
        "service": "car_repair",
        "service:vehicle:car_repair": "yes",
        "shop": "car",
        "website": "https://www.prem-toyota.at/"
      },
      "geometry": {
        "type": "Point",
        "coordinates": [
          15.7113137,
          47.1155131
        ]
      },
      "id": "node/9433363412"
    },
    {
      "type": "Feature",
      "properties": {
        "@id": "node/9433379743",
        "brand": "Toyota",
        "brand:wikidata": "Q53268",
        "brand:wikipedia": "en:Toyota",
        "name": "Autohaus Fürst GmbH",
        "service": "car_repair",
        "service:vehicle:car_repair": "yes",
        "shop": "car",
        "website": "https://www.toyota-fuerst.at/"
      },
      "geometry": {
        "type": "Point",
        "coordinates": [
          16.24105,
          47.2705137
        ]
      },
      "id": "node/9433379743"
    },
    {
      "type": "Feature",
      "properties": {
        "@id": "node/9433382255",
        "addr:city": "Großsteinbach",
        "addr:housenumber": "90",
        "addr:postcode": "8265",
        "addr:street": "Kroisbach",
        "brand": "Toyota",
        "name": "Autohaus Prem GmbH",
        "shop": "car_repair"
      },
      "geometry": {
        "type": "Point",
        "coordinates": [
          15.8787756,
          47.1622853
        ]
      },
      "id": "node/9433382255"
    },
    {
      "type": "Feature",
      "properties": {
        "@id": "node/9433490176",
        "brand": "Lexus",
        "name": "Lexus Service Unterwart",
        "service:vehicle:car_repair": "yes",
        "shop": "car_repair",
        "website": "https://www.lexus.at/"
      },
      "geometry": {
        "type": "Point",
        "coordinates": [
          16.2416758,
          47.2704404
        ]
      },
      "id": "node/9433490176"
    },
    {
      "type": "Feature",
      "properties": {
        "@id": "node/9433765555",
        "brand": "Lexus",
        "name": "Lexus Service Wolfsberg",
        "shop": "car_repair"
      },
      "geometry": {
        "type": "Point",
        "coordinates": [
          14.8429031,
          46.8177269
        ]
      },
      "id": "node/9433765555"
    },
    {
      "type": "Feature",
      "properties": {
        "@id": "node/9466703316",
        "addr:city": "St. Peter am Kammersberg",
        "addr:housenumber": "84",
        "addr:postcode": "8842",
        "addr:street": "Peterdorf",
        "name": "Ressler KFZ-Technik GmbH",
        "opening_hours": "Mo-Fr 08:00-12:00 & 13:00-16:30",
        "opening_hours:covid19": "open",
        "operator": "Harald Ressler",
        "payment:cash": "yes",
        "payment:credit_cards": "yes",
        "payment:maestro": "yes",
        "payment:mastercard": "yes",
        "payment:visa": "yes",
        "phone": "0664/4219515",
        "service:vehicle:air_conditioning": "yes",
        "service:vehicle:alignment": "yes",
        "service:vehicle:batteries": "yes",
        "service:vehicle:brakes": "yes",
        "service:vehicle:car_parts": "yes",
        "service:vehicle:car_repair": "yes",
        "service:vehicle:diagnostics": "yes",
        "service:vehicle:electrical": "yes",
        "service:vehicle:glass": "yes",
        "service:vehicle:inspection": "yes",
        "service:vehicle:oil_change": "yes",
        "service:vehicle:wheels": "yes",
        "shop": "car_repair",
        "start_date": "2005-01-02",
        "website": "www.resslerkfz.at",
        "wheelchair": "yes"
      },
      "geometry": {
        "type": "Point",
        "coordinates": [
          14.2239187,
          47.17805
        ]
      },
      "id": "node/9466703316"
    },
    {
      "type": "Feature",
      "properties": {
        "@id": "node/9480804562",
        "addr:city": "Eggersdorf bei Graz",
        "addr:housenumber": "35",
        "addr:postcode": "8062",
        "addr:street": "Harterstraße",
        "name": "KFZ Gruber",
        "phone": "+43 664 5143070",
        "shop": "car_repair"
      },
      "geometry": {
        "type": "Point",
        "coordinates": [
          15.5597249,
          47.1523006
        ]
      },
      "id": "node/9480804562"
    },
    {
      "type": "Feature",
      "properties": {
        "@id": "node/9489679904",
        "addr:city": "Trieben",
        "addr:housenumber": "23",
        "addr:postcode": "8784",
        "addr:street": "Schoberpaß Bundesstraße",
        "name": "KFZ Zehentmayr",
        "shop": "car_repair"
      },
      "geometry": {
        "type": "Point",
        "coordinates": [
          14.4803925,
          47.489094
        ]
      },
      "id": "node/9489679904"
    },
    {
      "type": "Feature",
      "properties": {
        "@id": "node/9650935765",
        "shop": "car_repair"
      },
      "geometry": {
        "type": "Point",
        "coordinates": [
          15.2369934,
          46.8283035
        ]
      },
      "id": "node/9650935765"
    },
    {
      "type": "Feature",
      "properties": {
        "@id": "node/9658427627",
        "amenity": "bicycle_repair_station",
        "covered": "yes",
        "fee": "no",
        "opening_hours": "24/7",
        "operator": "Gemeinde Hart bei Graz",
        "service:bicycle:pump": "yes",
        "service:bicycle:tools": "yes"
      },
      "geometry": {
        "type": "Point",
        "coordinates": [
          15.520915,
          47.045041
        ]
      },
      "id": "node/9658427627"
    },
    {
      "type": "Feature",
      "properties": {
        "@id": "node/9661456575",
        "amenity": "bicycle_repair_station",
        "socket:schuko": "2"
      },
      "geometry": {
        "type": "Point",
        "coordinates": [
          14.9339437,
          46.6476198
        ]
      },
      "id": "node/9661456575"
    },
    {
      "type": "Feature",
      "properties": {
        "@id": "node/9691280093",
        "addr:city": "Wies",
        "addr:housenumber": "269",
        "addr:place": "Steyeregg",
        "addr:postcode": "8551",
        "name": "CarCeramic",
        "operator": "Andreas Lambauer",
        "phone": "+436601437878",
        "shop": "car_repair",
        "website": "https://www.carceramic.at/"
      },
      "geometry": {
        "type": "Point",
        "coordinates": [
          15.2392227,
          46.7383103
        ]
      },
      "id": "node/9691280093"
    },
    {
      "type": "Feature",
      "properties": {
        "@id": "node/9700732791",
        "addr:city": "Bad Blumau",
        "addr:housenumber": "36",
        "addr:postcode": "8283",
        "addr:street": "Lindegg",
        "brand": "Bosch Car Service",
        "brand:wikidata": "Q234021",
        "name": "Bosch Car Service",
        "opening_hours": "Mo-Fr 08:00-16:45",
        "operator": "Deimel KFZ-Technik",
        "payment:cash": "yes",
        "payment:mastercard": "yes",
        "payment:visa": "yes",
        "phone": "+4333857076",
        "service:vehicle:air_conditioning": "yes",
        "service:vehicle:batteries": "yes",
        "service:vehicle:brakes": "yes",
        "service:vehicle:car_parts": "yes",
        "service:vehicle:car_repair": "yes",
        "service:vehicle:diagnostics": "yes",
        "service:vehicle:electrical": "yes",
        "service:vehicle:glass": "yes",
        "service:vehicle:inspection": "yes",
        "service:vehicle:muffler": "yes",
        "service:vehicle:oil_change": "yes",
        "service:vehicle:repairs": "yes",
        "service:vehicle:wheels": "yes",
        "shop": "car_repair",
        "website": "https://deimel-kfz.at"
      },
      "geometry": {
        "type": "Point",
        "coordinates": [
          16.008202,
          47.1167667
        ]
      },
      "id": "node/9700732791"
    },
    {
      "type": "Feature",
      "properties": {
        "@id": "node/9707692953",
        "amenity": "bicycle_repair_station",
        "fee": "no",
        "opening_hours": "24/7"
      },
      "geometry": {
        "type": "Point",
        "coordinates": [
          15.3345212,
          46.9746316
        ]
      },
      "id": "node/9707692953"
    },
    {
      "type": "Feature",
      "properties": {
        "@id": "node/9737365707",
        "amenity": "bicycle_repair_station",
        "opening_hours": "24/7",
        "service:bicycle:pump": "yes",
        "service:bicycle:tools": "yes"
      },
      "geometry": {
        "type": "Point",
        "coordinates": [
          14.9373494,
          47.305546
        ]
      },
      "id": "node/9737365707"
    },
    {
      "type": "Feature",
      "properties": {
        "@id": "node/9750235384",
        "brand": "Mister Minit",
        "brand:wikidata": "Q1939269",
        "level": "0",
        "name": "Mister Minit",
        "shop": "repair"
      },
      "geometry": {
        "type": "Point",
        "coordinates": [
          15.4102883,
          47.0118534
        ]
      },
      "id": "node/9750235384"
    },
    {
      "type": "Feature",
      "properties": {
        "@id": "node/9756522175",
        "amenity": "bicycle_repair_station",
        "fee": "no"
      },
      "geometry": {
        "type": "Point",
        "coordinates": [
          15.4488527,
          47.0785398
        ]
      },
      "id": "node/9756522175"
    },
    {
      "type": "Feature",
      "properties": {
        "@id": "node/9775359201",
        "addr:housenumber": "24",
        "addr:street": "Rösselmühlgasse 24",
        "description": "Reparaturwerkstatt für Elektronik,Elektrik,'Mechanik",
        "email": "repair@estiria.eu",
        "name": "Reparaturwerkstatt Estiria",
        "opening_hours": "Mo-Sa 08:00-12:00,16:00-20:00",
        "payment:cash": "yes",
        "phone": "+43 670 600 10 20",
        "shop": "repair",
        "website": "https://estiria.eu"
      },
      "geometry": {
        "type": "Point",
        "coordinates": [
          15.4279842,
          47.0667649
        ]
      },
      "id": "node/9775359201"
    },
    {
      "type": "Feature",
      "properties": {
        "@id": "node/9779477742",
        "amenity": "bicycle_repair_station",
        "compressed_air": "yes",
        "name": "Fahrradservice Box",
        "service:bicycle:pump": "yes",
        "service:bicycle:tools": "yes"
      },
      "geometry": {
        "type": "Point",
        "coordinates": [
          15.4535735,
          47.0638739
        ]
      },
      "id": "node/9779477742"
    },
    {
      "type": "Feature",
      "properties": {
        "@id": "node/9805824845",
        "addr:city": "Hartberg",
        "addr:housenumber": "5",
        "addr:postcode": "8230",
        "addr:street": "Im Hatric",
        "brand": "Carglass",
        "brand:wikidata": "Q1035997",
        "name": "Carglass",
        "opening_hours": "Mo-Th 08:00-17:00; Fr 08:00-15:00",
        "phone": "+43 800 230230",
        "shop": "car_repair",
        "website": "https://www.carglass.at"
      },
      "geometry": {
        "type": "Point",
        "coordinates": [
          15.9920801,
          47.2817699
        ]
      },
      "id": "node/9805824845"
    },
    {
      "type": "Feature",
      "properties": {
        "@id": "node/9823422547",
        "amenity": "bicycle_repair_station",
        "service:bicycle:pump": "yes"
      },
      "geometry": {
        "type": "Point",
        "coordinates": [
          14.3034174,
          46.6296611
        ]
      },
      "id": "node/9823422547"
    },
    {
      "type": "Feature",
      "properties": {
        "@id": "node/9827809738",
        "amenity": "bicycle_repair_station",
        "fee": "no",
        "opening_hours": "24/7",
        "service:bicycle:pump": "yes",
        "service:bicycle:stand": "yes",
        "service:bicycle:tools": "yes"
      },
      "geometry": {
        "type": "Point",
        "coordinates": [
          16.0409424,
          47.7122972
        ]
      },
      "id": "node/9827809738"
    },
    {
      "type": "Feature",
      "properties": {
        "@id": "node/9850361930",
        "addr:city": "Ragnitz",
        "addr:country": "AT",
        "addr:housenumber": "52",
        "addr:place": "Haslach an der Stiefing",
        "addr:postcode": "8413",
        "contact:phone": "+43 3183 7200",
        "name": "Schmied - KFZ",
        "shop": "car_repair",
        "website": "http://www.schmiedkfz.at/"
      },
      "geometry": {
        "type": "Point",
        "coordinates": [
          15.5849488,
          46.8498332
        ]
      },
      "id": "node/9850361930"
    },
    {
      "type": "Feature",
      "properties": {
        "@id": "node/9850361931",
        "contact:phone": "+43 3183 209 50",
        "name": "HÖDL - KFZ-Spenglerei- Lackiererei",
        "shop": "car_repair",
        "website": "http://www.lackiererei-hoedl.at/"
      },
      "geometry": {
        "type": "Point",
        "coordinates": [
          15.5881449,
          46.8497746
        ]
      },
      "id": "node/9850361931"
    },
    {
      "type": "Feature",
      "properties": {
        "@id": "node/9860930160",
        "amenity": "bicycle_repair_station"
      },
      "geometry": {
        "type": "Point",
        "coordinates": [
          15.4098764,
          47.0803753
        ]
      },
      "id": "node/9860930160"
    },
    {
      "type": "Feature",
      "properties": {
        "@id": "node/9871754715",
        "addr:city": "Graz",
        "addr:housenumber": "81",
        "addr:postcode": "8020",
        "addr:street": "Lazarettgürtel",
        "craft": "electronics_repair",
        "name": "Zumugg",
        "phone": "+433167721200"
      },
      "geometry": {
        "type": "Point",
        "coordinates": [
          15.4272728,
          47.0580538
        ]
      },
      "id": "node/9871754715"
    },
    {
      "type": "Feature",
      "properties": {
        "@id": "node/9895975648",
        "addr:city": "Kapfenberg",
        "addr:country": "AT",
        "addr:housenumber": "78b",
        "addr:postcode": "8605",
        "addr:street": "Grazer Straße",
        "brand": "Škoda",
        "brand:wikidata": "Q29637",
        "brand:wikipedia": "en:Škoda Auto",
        "name": "Škoda Marichhofer",
        "opening_hours": "Mo-Th 08:00-12:00,12:30-17:00; Fr 08:00-12:00",
        "shop": "car_repair",
        "website": "https://www.marichhofer.at"
      },
      "geometry": {
        "type": "Point",
        "coordinates": [
          15.2717341,
          47.433628
        ]
      },
      "id": "node/9895975648"
    },
    {
      "type": "Feature",
      "properties": {
        "@id": "node/9916633302",
        "amenity": "bicycle_repair_station",
        "fee": "no",
        "opening_hours": "24/7",
        "operator": "FH JOANNEUM",
        "service:bicycle:pump": "yes",
        "service:bicycle:repair": "yes",
        "service:bicycle:tools": "yes",
        "vending": "bicycle_repair_station"
      },
      "geometry": {
        "type": "Point",
        "coordinates": [
          15.4068788,
          47.069076
        ]
      },
      "id": "node/9916633302"
    },
    {
      "type": "Feature",
      "properties": {
        "@id": "node/9971608353",
        "amenity": "bicycle_repair_station",
        "fee": "no",
        "opening_hours": "24/7",
        "operator": "ÖAMTC",
        "service:bicycle:pump": "yes",
        "service:bicycle:stand": "yes",
        "service:bicycle:tools": "yes"
      },
      "geometry": {
        "type": "Point",
        "coordinates": [
          16.1759237,
          47.3069052
        ]
      },
      "id": "node/9971608353"
    },
    {
      "type": "Feature",
      "properties": {
        "@id": "node/10021674351",
        "amenity": "bicycle_repair_station",
        "service:bicycle:pump": "yes"
      },
      "geometry": {
        "type": "Point",
        "coordinates": [
          14.2671238,
          46.6228081
        ]
      },
      "id": "node/10021674351"
    },
    {
      "type": "Feature",
      "properties": {
        "@id": "node/10057668842",
        "amenity": "bicycle_repair_station",
        "fee": "no",
        "service:bicycle:compressed_air": "yes",
        "service:bicycle:pump": "yes"
      },
      "geometry": {
        "type": "Point",
        "coordinates": [
          15.4378011,
          47.0788431
        ]
      },
      "id": "node/10057668842"
    },
    {
      "type": "Feature",
      "properties": {
        "@id": "node/10057673912",
        "amenity": "bicycle_repair_station",
        "fee": "no",
        "service:bicycle:compressed_air": "yes",
        "service:bicycle:tools": "yes"
      },
      "geometry": {
        "type": "Point",
        "coordinates": [
          15.4329857,
          47.0793619
        ]
      },
      "id": "node/10057673912"
    },
    {
      "type": "Feature",
      "properties": {
        "@id": "node/10057673913",
        "amenity": "bicycle_repair_station",
        "fee": "yes",
        "payment:coins": "yes",
        "service:bicycle:pump": "yes",
        "service:bicycle:wash": "yes"
      },
      "geometry": {
        "type": "Point",
        "coordinates": [
          15.4330447,
          47.0793838
        ]
      },
      "id": "node/10057673913"
    },
    {
      "type": "Feature",
      "properties": {
        "@id": "node/10123300956",
        "name": "KFZ Wiesler",
        "service": "parts;repair;tyres",
        "shop": "car_repair"
      },
      "geometry": {
        "type": "Point",
        "coordinates": [
          16.0095169,
          46.9343708
        ]
      },
      "id": "node/10123300956"
    },
    {
      "type": "Feature",
      "properties": {
        "@id": "node/10186533856",
        "amenity": "bicycle_repair_station"
      },
      "geometry": {
        "type": "Point",
        "coordinates": [
          15.3362157,
          47.1137088
        ]
      },
      "id": "node/10186533856"
    },
    {
      "type": "Feature",
      "properties": {
        "@id": "node/10211810468",
        "addr:city": "Graz",
        "addr:country": "AT",
        "addr:postcode": "8020",
        "contact:mobile": "+43 664 3021 610",
        "name": "Autospenglerei Sirk",
        "shop": "car_repair"
      },
      "geometry": {
        "type": "Point",
        "coordinates": [
          15.4178142,
          47.0592405
        ]
      },
      "id": "node/10211810468"
    },
    {
      "type": "Feature",
      "properties": {
        "@id": "node/10229376604",
        "addr:city": "Graz",
        "addr:country": "AT",
        "addr:housenumber": "18",
        "addr:postcode": "8010",
        "addr:street": "Draisgasse",
        "email": "kontakt@blechstubm.at",
        "name": "Blechstubm",
        "opening_hours": "Mo-Fr 08:00-17:00",
        "phone": "+43 664 63 44 736",
        "shop": "car_repair",
        "website": "https://blechstubm.at/"
      },
      "geometry": {
        "type": "Point",
        "coordinates": [
          15.4458036,
          47.0536107
        ]
      },
      "id": "node/10229376604"
    },
    {
      "type": "Feature",
      "properties": {
        "@id": "node/10248999310",
        "amenity": "bike repair",
        "survey:date": "2022-12-09"
      },
      "geometry": {
        "type": "Point",
        "coordinates": [
          14.0981472,
          47.5112859
        ]
      },
      "id": "node/10248999310"
    },
    {
      "type": "Feature",
      "properties": {
        "@id": "node/10282244795",
        "addr:city": "Graz",
        "addr:country": "AT",
        "addr:housenumber": "452",
        "addr:postcode": "8055",
        "addr:street": "Alte Poststraße",
        "name": "KFZ-Technik Bosnjak",
        "opening_hours": "Mo-Th 08:00-17:00; Fr 08:00-12:00",
        "phone": "+43 676 477 65 62",
        "shop": "car_repair",
        "website": "https://kfz-bosnjak.eu/"
      },
      "geometry": {
        "type": "Point",
        "coordinates": [
          15.4292914,
          47.0338725
        ]
      },
      "id": "node/10282244795"
    },
    {
      "type": "Feature",
      "properties": {
        "@id": "node/10287233597",
        "amenity": "bicycle_repair_station"
      },
      "geometry": {
        "type": "Point",
        "coordinates": [
          15.0672495,
          47.359919
        ]
      },
      "id": "node/10287233597"
    },
    {
      "type": "Feature",
      "properties": {
        "@id": "node/10298387094",
        "addr:city": "Völkermarkt",
        "addr:country": "AT",
        "addr:postcode": "9100",
        "brand": "ÖAMTC",
        "brand:wikidata": "Q306057",
        "contact:phone": "+43 4232 2388",
        "name": "ÖAMTC",
        "opening_hours": "Mo-Sa 08:00-17:00",
        "shop": "car_repair"
      },
      "geometry": {
        "type": "Point",
        "coordinates": [
          14.6148432,
          46.6571382
        ]
      },
      "id": "node/10298387094"
    },
    {
      "type": "Feature",
      "properties": {
        "@id": "node/10308737729",
        "addr:city": "Klagenfurt am Wörthersee",
        "addr:housenumber": "5",
        "addr:postcode": "9020",
        "addr:street": "Klatteweg",
        "name": "Wallner Cranetec Gmbh",
        "phone": "00436645662602",
        "shop": "car_repair",
        "website": "www.cranetec.at"
      },
      "geometry": {
        "type": "Point",
        "coordinates": [
          14.3143959,
          46.6655155
        ]
      },
      "id": "node/10308737729"
    },
    {
      "type": "Feature",
      "properties": {
        "@id": "node/10586420722",
        "brand": "Eurorepair",
        "contact:phone": "+43 2666 52424",
        "name": "Slanar",
        "opening_hours": "Mo-Fr 05:30-19:00; Sa 06:00-07:00; PH,Su 07:00-19:00",
        "operator": "Slanar GmbH",
        "shop": "car_repair"
      },
      "geometry": {
        "type": "Point",
        "coordinates": [
          15.8363179,
          47.698274
        ]
      },
      "id": "node/10586420722"
    },
    {
      "type": "Feature",
      "properties": {
        "@id": "node/10748381462",
        "contact:phone": "+43 3142 234 440",
        "name": "KFZ-Weitzer",
        "shop": "car_repair"
      },
      "geometry": {
        "type": "Point",
        "coordinates": [
          15.1349149,
          47.0604067
        ]
      },
      "id": "node/10748381462"
    },
    {
      "type": "Feature",
      "properties": {
        "@id": "node/10763756342",
        "name": "Pietschnig Automotive",
        "shop": "car_repair"
      },
      "geometry": {
        "type": "Point",
        "coordinates": [
          14.8160712,
          46.7979726
        ]
      },
      "id": "node/10763756342"
    },
    {
      "type": "Feature",
      "properties": {
        "@id": "node/10799312846",
        "addr:housenumber": "6",
        "addr:street": "Paulitschgasse",
        "check_date": "2023-04-10",
        "level": "0",
        "name": "Schuh Service",
        "shop": "shoe_repair"
      },
      "geometry": {
        "type": "Point",
        "coordinates": [
          14.307282,
          46.6214647
        ]
      },
      "id": "node/10799312846"
    }
  ]
}